{
"type": "FeatureCollection",
"name": "2019_energy_data",
"features": [
{ "type": "Feature", "properties": { "searchval": "NAN CHIAU HIGH SCHOOL", "blk_no": "20", "road_name": "ANCHORVALE LINK", "building": "NAN CHIAU HIGH SCHOOL", "address": "20 ANCHORVALE LINK NAN CHIAU HIGH SCHOOL SINGAPORE 545079", "postal": "545079", "building_type": "Healthcare Facility", "gross_floor_area": null }, "geometry": { "type": "Point", "coordinates": [ 103.890004423763997, 1.38879582498399 ] } },
{ "type": "Feature", "properties": { "searchval": "NAN CHIAU PRIMARY SCHOOL", "blk_no": "50", "road_name": "ANCHORVALE LINK", "building": "NAN CHIAU PRIMARY SCHOOL", "address": "50 ANCHORVALE LINK NAN CHIAU PRIMARY SCHOOL SINGAPORE 545080", "postal": "545080", "building_type": "Healthcare Facility", "gross_floor_area": null }, "geometry": { "type": "Point", "coordinates": [ 103.891180928186003, 1.39221149906592 ] } },
{ "type": "Feature", "properties": { "searchval": "NAN HUA HIGH SCHOOL", "blk_no": "41", "road_name": "CLEMENTI AVENUE 1", "building": "NAN HUA HIGH SCHOOL", "address": "41 CLEMENTI AVENUE 1 NAN HUA HIGH SCHOOL SINGAPORE 129956", "postal": "129956", "building_type": "Healthcare Facility", "gross_floor_area": null }, "geometry": { "type": "Point", "coordinates": [ 103.768561446725002, 1.30809529518605 ] } },
{ "type": "Feature", "properties": { "searchval": "NAN HUA PRIMARY SCHOOL", "blk_no": "30", "road_name": "JALAN LEMPENG", "building": "NAN HUA PRIMARY SCHOOL", "address": "30 JALAN LEMPENG NAN HUA PRIMARY SCHOOL SINGAPORE 128806", "postal": "128806", "building_type": "Healthcare Facility", "gross_floor_area": null }, "geometry": { "type": "Point", "coordinates": [ 103.761095065760998, 1.31920159956387 ] } },
{ "type": "Feature", "properties": { "searchval": "NANYANG POLYTECHNIC", "blk_no": "180", "road_name": "ANG MO KIO AVENUE 8", "building": "NANYANG POLYTECHNIC", "address": "180 ANG MO KIO AVENUE 8 NANYANG POLYTECHNIC SINGAPORE 569830", "postal": "569830", "building_type": "Healthcare Facility", "gross_floor_area": null }, "geometry": { "type": "Point", "coordinates": [ 103.848423445403, 1.3778190310896 ] } },
{ "type": "Feature", "properties": { "searchval": "NANYANG POLYTECHNIC", "blk_no": "150", "road_name": "ANG MO KIO AVENUE 8", "building": "NANYANG POLYTECHNIC", "address": "150 ANG MO KIO AVENUE 8 NANYANG POLYTECHNIC SINGAPORE 569815", "postal": "569815", "building_type": "Healthcare Facility", "gross_floor_area": null }, "geometry": { "type": "Point", "coordinates": [ 103.849736066713007, 1.38111875111583 ] } },
{ "type": "Feature", "properties": { "searchval": "NANYANG PRIMARY SCHOOL", "blk_no": "52", "road_name": "KING'S ROAD", "building": "NANYANG PRIMARY SCHOOL", "address": "52 KING'S ROAD NANYANG PRIMARY SCHOOL SINGAPORE 268097", "postal": "268097", "building_type": "Healthcare Facility", "gross_floor_area": null }, "geometry": { "type": "Point", "coordinates": [ 103.807750155296006, 1.32084749904532 ] } },
{ "type": "Feature", "properties": { "searchval": "NANYANG PRIMARY SCHOOL", "blk_no": "51", "road_name": "CORONATION ROAD", "building": "NANYANG PRIMARY SCHOOL", "address": "51 CORONATION ROAD NANYANG PRIMARY SCHOOL SINGAPORE 269460", "postal": "269460", "building_type": "Healthcare Facility", "gross_floor_area": null }, "geometry": { "type": "Point", "coordinates": [ 103.806468059794994, 1.32111548993736 ] } },
{ "type": "Feature", "properties": { "searchval": "NANYANG TECHNOLOGICAL UNIVERSITY", "blk_no": "94", "road_name": "NANYANG CRESCENT", "building": "NANYANG TECHNOLOGICAL UNIVERSITY", "address": "94 NANYANG CRESCENT NANYANG TECHNOLOGICAL UNIVERSITY SINGAPORE 637034", "postal": "637034", "building_type": "Healthcare Facility", "gross_floor_area": null }, "geometry": { "type": "Point", "coordinates": [ 103.689223508671006, 1.35294937020326 ] } },
{ "type": "Feature", "properties": { "searchval": "NANYANG TECHNOLOGICAL UNIVERSITY", "blk_no": "63", "road_name": "NANYANG DRIVE", "building": "NANYANG TECHNOLOGICAL UNIVERSITY", "address": "63 NANYANG DRIVE NANYANG TECHNOLOGICAL UNIVERSITY SINGAPORE 636922", "postal": "636922", "building_type": "Healthcare Facility", "gross_floor_area": null }, "geometry": { "type": "Point", "coordinates": [ 103.681757553769998, 1.34755085440782 ] } },
{ "type": "Feature", "properties": { "searchval": "NATIONAL HEART CENTRE SINGAPORE", "blk_no": "5", "road_name": "HOSPITAL DRIVE", "building": "NATIONAL HEART CENTRE SINGAPORE", "address": "5 HOSPITAL DRIVE NATIONAL HEART CENTRE SINGAPORE SINGAPORE 169609", "postal": "169609", "building_type": "Healthcare Facility", "gross_floor_area": "48,432" }, "geometry": { "type": "Point", "coordinates": [ 103.836119445069997, 1.27858060226671 ] } },
{ "type": "Feature", "properties": { "searchval": "SINGAPORE CHUNG HWA MEDICAL INSTITUTION", "blk_no": "2", "road_name": "SIMEI STREET 3", "building": "SINGAPORE CHUNG HWA MEDICAL INSTITUTION", "address": "2 SIMEI STREET 3 SINGAPORE CHUNG HWA MEDICAL INSTITUTION SINGAPORE 529889", "postal": "529889", "building_type": "Healthcare Facility", "gross_floor_area": "112,932" }, "geometry": { "type": "Point", "coordinates": [ 103.949633084403004, 1.34053138453855 ] } },
{ "type": "Feature", "properties": { "searchval": "JOHNS HOPKINS SINGAPORE INTERNATIONAL MEDICAL CENTRE", "blk_no": "11", "road_name": "JALAN TAN TOCK SENG", "building": "JOHNS HOPKINS SINGAPORE INTERNATIONAL MEDICAL CENTRE", "address": "11 JALAN TAN TOCK SENG JOHNS HOPKINS SINGAPORE INTERNATIONAL MEDICAL CENTRE SINGAPORE 308433", "postal": "308433", "building_type": "Healthcare Facility", "gross_floor_area": "191,832" }, "geometry": { "type": "Point", "coordinates": [ 103.845757369412993, 1.32100978515427 ] } },
{ "type": "Feature", "properties": { "searchval": "NAN CHIAU HIGH SCHOOL", "blk_no": "20", "road_name": "ANCHORVALE LINK", "building": "NAN CHIAU HIGH SCHOOL", "address": "20 ANCHORVALE LINK NAN CHIAU HIGH SCHOOL SINGAPORE 545079", "postal": "545079", "building_type": "Healthcare Facility", "gross_floor_area": null }, "geometry": { "type": "Point", "coordinates": [ 103.890004423763997, 1.38879582498399 ] } },
{ "type": "Feature", "properties": { "searchval": "NAN CHIAU PRIMARY SCHOOL", "blk_no": "50", "road_name": "ANCHORVALE LINK", "building": "NAN CHIAU PRIMARY SCHOOL", "address": "50 ANCHORVALE LINK NAN CHIAU PRIMARY SCHOOL SINGAPORE 545080", "postal": "545080", "building_type": "Healthcare Facility", "gross_floor_area": null }, "geometry": { "type": "Point", "coordinates": [ 103.891180928186003, 1.39221149906592 ] } },
{ "type": "Feature", "properties": { "searchval": "NAN HUA HIGH SCHOOL", "blk_no": "41", "road_name": "CLEMENTI AVENUE 1", "building": "NAN HUA HIGH SCHOOL", "address": "41 CLEMENTI AVENUE 1 NAN HUA HIGH SCHOOL SINGAPORE 129956", "postal": "129956", "building_type": "Healthcare Facility", "gross_floor_area": null }, "geometry": { "type": "Point", "coordinates": [ 103.768561446725002, 1.30809529518605 ] } },
{ "type": "Feature", "properties": { "searchval": "NAN HUA PRIMARY SCHOOL", "blk_no": "30", "road_name": "JALAN LEMPENG", "building": "NAN HUA PRIMARY SCHOOL", "address": "30 JALAN LEMPENG NAN HUA PRIMARY SCHOOL SINGAPORE 128806", "postal": "128806", "building_type": "Healthcare Facility", "gross_floor_area": null }, "geometry": { "type": "Point", "coordinates": [ 103.761095065760998, 1.31920159956387 ] } },
{ "type": "Feature", "properties": { "searchval": "NANYANG POLYTECHNIC", "blk_no": "180", "road_name": "ANG MO KIO AVENUE 8", "building": "NANYANG POLYTECHNIC", "address": "180 ANG MO KIO AVENUE 8 NANYANG POLYTECHNIC SINGAPORE 569830", "postal": "569830", "building_type": "Healthcare Facility", "gross_floor_area": null }, "geometry": { "type": "Point", "coordinates": [ 103.848423445403, 1.3778190310896 ] } },
{ "type": "Feature", "properties": { "searchval": "NANYANG POLYTECHNIC", "blk_no": "150", "road_name": "ANG MO KIO AVENUE 8", "building": "NANYANG POLYTECHNIC", "address": "150 ANG MO KIO AVENUE 8 NANYANG POLYTECHNIC SINGAPORE 569815", "postal": "569815", "building_type": "Healthcare Facility", "gross_floor_area": null }, "geometry": { "type": "Point", "coordinates": [ 103.849736066713007, 1.38111875111583 ] } },
{ "type": "Feature", "properties": { "searchval": "NANYANG PRIMARY SCHOOL", "blk_no": "52", "road_name": "KING'S ROAD", "building": "NANYANG PRIMARY SCHOOL", "address": "52 KING'S ROAD NANYANG PRIMARY SCHOOL SINGAPORE 268097", "postal": "268097", "building_type": "Healthcare Facility", "gross_floor_area": null }, "geometry": { "type": "Point", "coordinates": [ 103.807750155296006, 1.32084749904532 ] } },
{ "type": "Feature", "properties": { "searchval": "NANYANG PRIMARY SCHOOL", "blk_no": "51", "road_name": "CORONATION ROAD", "building": "NANYANG PRIMARY SCHOOL", "address": "51 CORONATION ROAD NANYANG PRIMARY SCHOOL SINGAPORE 269460", "postal": "269460", "building_type": "Healthcare Facility", "gross_floor_area": null }, "geometry": { "type": "Point", "coordinates": [ 103.806468059794994, 1.32111548993736 ] } },
{ "type": "Feature", "properties": { "searchval": "NANYANG TECHNOLOGICAL UNIVERSITY", "blk_no": "94", "road_name": "NANYANG CRESCENT", "building": "NANYANG TECHNOLOGICAL UNIVERSITY", "address": "94 NANYANG CRESCENT NANYANG TECHNOLOGICAL UNIVERSITY SINGAPORE 637034", "postal": "637034", "building_type": "Healthcare Facility", "gross_floor_area": null }, "geometry": { "type": "Point", "coordinates": [ 103.689223508671006, 1.35294937020326 ] } },
{ "type": "Feature", "properties": { "searchval": "NANYANG TECHNOLOGICAL UNIVERSITY", "blk_no": "63", "road_name": "NANYANG DRIVE", "building": "NANYANG TECHNOLOGICAL UNIVERSITY", "address": "63 NANYANG DRIVE NANYANG TECHNOLOGICAL UNIVERSITY SINGAPORE 636922", "postal": "636922", "building_type": "Healthcare Facility", "gross_floor_area": null }, "geometry": { "type": "Point", "coordinates": [ 103.681757553769998, 1.34755085440782 ] } },
{ "type": "Feature", "properties": { "searchval": "NAN CHIAU HIGH SCHOOL", "blk_no": "20", "road_name": "ANCHORVALE LINK", "building": "NAN CHIAU HIGH SCHOOL", "address": "20 ANCHORVALE LINK NAN CHIAU HIGH SCHOOL SINGAPORE 545079", "postal": "545079", "building_type": "Healthcare Facility", "gross_floor_area": null }, "geometry": { "type": "Point", "coordinates": [ 103.890004423763997, 1.38879582498399 ] } },
{ "type": "Feature", "properties": { "searchval": "NAN CHIAU PRIMARY SCHOOL", "blk_no": "50", "road_name": "ANCHORVALE LINK", "building": "NAN CHIAU PRIMARY SCHOOL", "address": "50 ANCHORVALE LINK NAN CHIAU PRIMARY SCHOOL SINGAPORE 545080", "postal": "545080", "building_type": "Healthcare Facility", "gross_floor_area": null }, "geometry": { "type": "Point", "coordinates": [ 103.891180928186003, 1.39221149906592 ] } },
{ "type": "Feature", "properties": { "searchval": "NAN HUA HIGH SCHOOL", "blk_no": "41", "road_name": "CLEMENTI AVENUE 1", "building": "NAN HUA HIGH SCHOOL", "address": "41 CLEMENTI AVENUE 1 NAN HUA HIGH SCHOOL SINGAPORE 129956", "postal": "129956", "building_type": "Healthcare Facility", "gross_floor_area": null }, "geometry": { "type": "Point", "coordinates": [ 103.768561446725002, 1.30809529518605 ] } },
{ "type": "Feature", "properties": { "searchval": "NAN HUA PRIMARY SCHOOL", "blk_no": "30", "road_name": "JALAN LEMPENG", "building": "NAN HUA PRIMARY SCHOOL", "address": "30 JALAN LEMPENG NAN HUA PRIMARY SCHOOL SINGAPORE 128806", "postal": "128806", "building_type": "Healthcare Facility", "gross_floor_area": null }, "geometry": { "type": "Point", "coordinates": [ 103.761095065760998, 1.31920159956387 ] } },
{ "type": "Feature", "properties": { "searchval": "NANYANG POLYTECHNIC", "blk_no": "180", "road_name": "ANG MO KIO AVENUE 8", "building": "NANYANG POLYTECHNIC", "address": "180 ANG MO KIO AVENUE 8 NANYANG POLYTECHNIC SINGAPORE 569830", "postal": "569830", "building_type": "Healthcare Facility", "gross_floor_area": null }, "geometry": { "type": "Point", "coordinates": [ 103.848423445403, 1.3778190310896 ] } },
{ "type": "Feature", "properties": { "searchval": "NANYANG POLYTECHNIC", "blk_no": "150", "road_name": "ANG MO KIO AVENUE 8", "building": "NANYANG POLYTECHNIC", "address": "150 ANG MO KIO AVENUE 8 NANYANG POLYTECHNIC SINGAPORE 569815", "postal": "569815", "building_type": "Healthcare Facility", "gross_floor_area": null }, "geometry": { "type": "Point", "coordinates": [ 103.849736066713007, 1.38111875111583 ] } },
{ "type": "Feature", "properties": { "searchval": "NANYANG PRIMARY SCHOOL", "blk_no": "52", "road_name": "KING'S ROAD", "building": "NANYANG PRIMARY SCHOOL", "address": "52 KING'S ROAD NANYANG PRIMARY SCHOOL SINGAPORE 268097", "postal": "268097", "building_type": "Healthcare Facility", "gross_floor_area": null }, "geometry": { "type": "Point", "coordinates": [ 103.807750155296006, 1.32084749904532 ] } },
{ "type": "Feature", "properties": { "searchval": "NANYANG PRIMARY SCHOOL", "blk_no": "51", "road_name": "CORONATION ROAD", "building": "NANYANG PRIMARY SCHOOL", "address": "51 CORONATION ROAD NANYANG PRIMARY SCHOOL SINGAPORE 269460", "postal": "269460", "building_type": "Healthcare Facility", "gross_floor_area": null }, "geometry": { "type": "Point", "coordinates": [ 103.806468059794994, 1.32111548993736 ] } },
{ "type": "Feature", "properties": { "searchval": "NANYANG TECHNOLOGICAL UNIVERSITY", "blk_no": "94", "road_name": "NANYANG CRESCENT", "building": "NANYANG TECHNOLOGICAL UNIVERSITY", "address": "94 NANYANG CRESCENT NANYANG TECHNOLOGICAL UNIVERSITY SINGAPORE 637034", "postal": "637034", "building_type": "Healthcare Facility", "gross_floor_area": null }, "geometry": { "type": "Point", "coordinates": [ 103.689223508671006, 1.35294937020326 ] } },
{ "type": "Feature", "properties": { "searchval": "NANYANG TECHNOLOGICAL UNIVERSITY", "blk_no": "63", "road_name": "NANYANG DRIVE", "building": "NANYANG TECHNOLOGICAL UNIVERSITY", "address": "63 NANYANG DRIVE NANYANG TECHNOLOGICAL UNIVERSITY SINGAPORE 636922", "postal": "636922", "building_type": "Healthcare Facility", "gross_floor_area": null }, "geometry": { "type": "Point", "coordinates": [ 103.681757553769998, 1.34755085440782 ] } },
{ "type": "Feature", "properties": { "searchval": "NAN CHIAU HIGH SCHOOL", "blk_no": "20", "road_name": "ANCHORVALE LINK", "building": "NAN CHIAU HIGH SCHOOL", "address": "20 ANCHORVALE LINK NAN CHIAU HIGH SCHOOL SINGAPORE 545079", "postal": "545079", "building_type": "Healthcare Facility", "gross_floor_area": null }, "geometry": { "type": "Point", "coordinates": [ 103.890004423763997, 1.38879582498399 ] } },
{ "type": "Feature", "properties": { "searchval": "NAN CHIAU PRIMARY SCHOOL", "blk_no": "50", "road_name": "ANCHORVALE LINK", "building": "NAN CHIAU PRIMARY SCHOOL", "address": "50 ANCHORVALE LINK NAN CHIAU PRIMARY SCHOOL SINGAPORE 545080", "postal": "545080", "building_type": "Healthcare Facility", "gross_floor_area": null }, "geometry": { "type": "Point", "coordinates": [ 103.891180928186003, 1.39221149906592 ] } },
{ "type": "Feature", "properties": { "searchval": "NAN HUA HIGH SCHOOL", "blk_no": "41", "road_name": "CLEMENTI AVENUE 1", "building": "NAN HUA HIGH SCHOOL", "address": "41 CLEMENTI AVENUE 1 NAN HUA HIGH SCHOOL SINGAPORE 129956", "postal": "129956", "building_type": "Healthcare Facility", "gross_floor_area": null }, "geometry": { "type": "Point", "coordinates": [ 103.768561446725002, 1.30809529518605 ] } },
{ "type": "Feature", "properties": { "searchval": "NAN HUA PRIMARY SCHOOL", "blk_no": "30", "road_name": "JALAN LEMPENG", "building": "NAN HUA PRIMARY SCHOOL", "address": "30 JALAN LEMPENG NAN HUA PRIMARY SCHOOL SINGAPORE 128806", "postal": "128806", "building_type": "Healthcare Facility", "gross_floor_area": null }, "geometry": { "type": "Point", "coordinates": [ 103.761095065760998, 1.31920159956387 ] } },
{ "type": "Feature", "properties": { "searchval": "NANYANG POLYTECHNIC", "blk_no": "180", "road_name": "ANG MO KIO AVENUE 8", "building": "NANYANG POLYTECHNIC", "address": "180 ANG MO KIO AVENUE 8 NANYANG POLYTECHNIC SINGAPORE 569830", "postal": "569830", "building_type": "Healthcare Facility", "gross_floor_area": null }, "geometry": { "type": "Point", "coordinates": [ 103.848423445403, 1.3778190310896 ] } },
{ "type": "Feature", "properties": { "searchval": "NANYANG POLYTECHNIC", "blk_no": "150", "road_name": "ANG MO KIO AVENUE 8", "building": "NANYANG POLYTECHNIC", "address": "150 ANG MO KIO AVENUE 8 NANYANG POLYTECHNIC SINGAPORE 569815", "postal": "569815", "building_type": "Healthcare Facility", "gross_floor_area": null }, "geometry": { "type": "Point", "coordinates": [ 103.849736066713007, 1.38111875111583 ] } },
{ "type": "Feature", "properties": { "searchval": "NANYANG PRIMARY SCHOOL", "blk_no": "52", "road_name": "KING'S ROAD", "building": "NANYANG PRIMARY SCHOOL", "address": "52 KING'S ROAD NANYANG PRIMARY SCHOOL SINGAPORE 268097", "postal": "268097", "building_type": "Healthcare Facility", "gross_floor_area": null }, "geometry": { "type": "Point", "coordinates": [ 103.807750155296006, 1.32084749904532 ] } },
{ "type": "Feature", "properties": { "searchval": "NANYANG PRIMARY SCHOOL", "blk_no": "51", "road_name": "CORONATION ROAD", "building": "NANYANG PRIMARY SCHOOL", "address": "51 CORONATION ROAD NANYANG PRIMARY SCHOOL SINGAPORE 269460", "postal": "269460", "building_type": "Healthcare Facility", "gross_floor_area": null }, "geometry": { "type": "Point", "coordinates": [ 103.806468059794994, 1.32111548993736 ] } },
{ "type": "Feature", "properties": { "searchval": "NANYANG TECHNOLOGICAL UNIVERSITY", "blk_no": "94", "road_name": "NANYANG CRESCENT", "building": "NANYANG TECHNOLOGICAL UNIVERSITY", "address": "94 NANYANG CRESCENT NANYANG TECHNOLOGICAL UNIVERSITY SINGAPORE 637034", "postal": "637034", "building_type": "Healthcare Facility", "gross_floor_area": null }, "geometry": { "type": "Point", "coordinates": [ 103.689223508671006, 1.35294937020326 ] } },
{ "type": "Feature", "properties": { "searchval": "NANYANG TECHNOLOGICAL UNIVERSITY", "blk_no": "63", "road_name": "NANYANG DRIVE", "building": "NANYANG TECHNOLOGICAL UNIVERSITY", "address": "63 NANYANG DRIVE NANYANG TECHNOLOGICAL UNIVERSITY SINGAPORE 636922", "postal": "636922", "building_type": "Healthcare Facility", "gross_floor_area": null }, "geometry": { "type": "Point", "coordinates": [ 103.681757553769998, 1.34755085440782 ] } },
{ "type": "Feature", "properties": { "searchval": "NAN CHIAU HIGH SCHOOL", "blk_no": "20", "road_name": "ANCHORVALE LINK", "building": "NAN CHIAU HIGH SCHOOL", "address": "20 ANCHORVALE LINK NAN CHIAU HIGH SCHOOL SINGAPORE 545079", "postal": "545079", "building_type": "Healthcare Facility", "gross_floor_area": null }, "geometry": { "type": "Point", "coordinates": [ 103.890004423763997, 1.38879582498399 ] } },
{ "type": "Feature", "properties": { "searchval": "NAN CHIAU PRIMARY SCHOOL", "blk_no": "50", "road_name": "ANCHORVALE LINK", "building": "NAN CHIAU PRIMARY SCHOOL", "address": "50 ANCHORVALE LINK NAN CHIAU PRIMARY SCHOOL SINGAPORE 545080", "postal": "545080", "building_type": "Healthcare Facility", "gross_floor_area": null }, "geometry": { "type": "Point", "coordinates": [ 103.891180928186003, 1.39221149906592 ] } },
{ "type": "Feature", "properties": { "searchval": "NAN HUA HIGH SCHOOL", "blk_no": "41", "road_name": "CLEMENTI AVENUE 1", "building": "NAN HUA HIGH SCHOOL", "address": "41 CLEMENTI AVENUE 1 NAN HUA HIGH SCHOOL SINGAPORE 129956", "postal": "129956", "building_type": "Healthcare Facility", "gross_floor_area": null }, "geometry": { "type": "Point", "coordinates": [ 103.768561446725002, 1.30809529518605 ] } },
{ "type": "Feature", "properties": { "searchval": "NAN HUA PRIMARY SCHOOL", "blk_no": "30", "road_name": "JALAN LEMPENG", "building": "NAN HUA PRIMARY SCHOOL", "address": "30 JALAN LEMPENG NAN HUA PRIMARY SCHOOL SINGAPORE 128806", "postal": "128806", "building_type": "Healthcare Facility", "gross_floor_area": null }, "geometry": { "type": "Point", "coordinates": [ 103.761095065760998, 1.31920159956387 ] } },
{ "type": "Feature", "properties": { "searchval": "NANYANG POLYTECHNIC", "blk_no": "180", "road_name": "ANG MO KIO AVENUE 8", "building": "NANYANG POLYTECHNIC", "address": "180 ANG MO KIO AVENUE 8 NANYANG POLYTECHNIC SINGAPORE 569830", "postal": "569830", "building_type": "Healthcare Facility", "gross_floor_area": null }, "geometry": { "type": "Point", "coordinates": [ 103.848423445403, 1.3778190310896 ] } },
{ "type": "Feature", "properties": { "searchval": "NANYANG POLYTECHNIC", "blk_no": "150", "road_name": "ANG MO KIO AVENUE 8", "building": "NANYANG POLYTECHNIC", "address": "150 ANG MO KIO AVENUE 8 NANYANG POLYTECHNIC SINGAPORE 569815", "postal": "569815", "building_type": "Healthcare Facility", "gross_floor_area": null }, "geometry": { "type": "Point", "coordinates": [ 103.849736066713007, 1.38111875111583 ] } },
{ "type": "Feature", "properties": { "searchval": "NANYANG PRIMARY SCHOOL", "blk_no": "52", "road_name": "KING'S ROAD", "building": "NANYANG PRIMARY SCHOOL", "address": "52 KING'S ROAD NANYANG PRIMARY SCHOOL SINGAPORE 268097", "postal": "268097", "building_type": "Healthcare Facility", "gross_floor_area": null }, "geometry": { "type": "Point", "coordinates": [ 103.807750155296006, 1.32084749904532 ] } },
{ "type": "Feature", "properties": { "searchval": "NANYANG PRIMARY SCHOOL", "blk_no": "51", "road_name": "CORONATION ROAD", "building": "NANYANG PRIMARY SCHOOL", "address": "51 CORONATION ROAD NANYANG PRIMARY SCHOOL SINGAPORE 269460", "postal": "269460", "building_type": "Healthcare Facility", "gross_floor_area": null }, "geometry": { "type": "Point", "coordinates": [ 103.806468059794994, 1.32111548993736 ] } },
{ "type": "Feature", "properties": { "searchval": "NANYANG TECHNOLOGICAL UNIVERSITY", "blk_no": "94", "road_name": "NANYANG CRESCENT", "building": "NANYANG TECHNOLOGICAL UNIVERSITY", "address": "94 NANYANG CRESCENT NANYANG TECHNOLOGICAL UNIVERSITY SINGAPORE 637034", "postal": "637034", "building_type": "Healthcare Facility", "gross_floor_area": null }, "geometry": { "type": "Point", "coordinates": [ 103.689223508671006, 1.35294937020326 ] } },
{ "type": "Feature", "properties": { "searchval": "NANYANG TECHNOLOGICAL UNIVERSITY", "blk_no": "63", "road_name": "NANYANG DRIVE", "building": "NANYANG TECHNOLOGICAL UNIVERSITY", "address": "63 NANYANG DRIVE NANYANG TECHNOLOGICAL UNIVERSITY SINGAPORE 636922", "postal": "636922", "building_type": "Healthcare Facility", "gross_floor_area": null }, "geometry": { "type": "Point", "coordinates": [ 103.681757553769998, 1.34755085440782 ] } },
{ "type": "Feature", "properties": { "searchval": "NAN CHIAU HIGH SCHOOL", "blk_no": "20", "road_name": "ANCHORVALE LINK", "building": "NAN CHIAU HIGH SCHOOL", "address": "20 ANCHORVALE LINK NAN CHIAU HIGH SCHOOL SINGAPORE 545079", "postal": "545079", "building_type": "Healthcare Facility", "gross_floor_area": null }, "geometry": { "type": "Point", "coordinates": [ 103.890004423763997, 1.38879582498399 ] } },
{ "type": "Feature", "properties": { "searchval": "NAN CHIAU PRIMARY SCHOOL", "blk_no": "50", "road_name": "ANCHORVALE LINK", "building": "NAN CHIAU PRIMARY SCHOOL", "address": "50 ANCHORVALE LINK NAN CHIAU PRIMARY SCHOOL SINGAPORE 545080", "postal": "545080", "building_type": "Healthcare Facility", "gross_floor_area": null }, "geometry": { "type": "Point", "coordinates": [ 103.891180928186003, 1.39221149906592 ] } },
{ "type": "Feature", "properties": { "searchval": "NAN HUA HIGH SCHOOL", "blk_no": "41", "road_name": "CLEMENTI AVENUE 1", "building": "NAN HUA HIGH SCHOOL", "address": "41 CLEMENTI AVENUE 1 NAN HUA HIGH SCHOOL SINGAPORE 129956", "postal": "129956", "building_type": "Healthcare Facility", "gross_floor_area": null }, "geometry": { "type": "Point", "coordinates": [ 103.768561446725002, 1.30809529518605 ] } },
{ "type": "Feature", "properties": { "searchval": "NAN HUA PRIMARY SCHOOL", "blk_no": "30", "road_name": "JALAN LEMPENG", "building": "NAN HUA PRIMARY SCHOOL", "address": "30 JALAN LEMPENG NAN HUA PRIMARY SCHOOL SINGAPORE 128806", "postal": "128806", "building_type": "Healthcare Facility", "gross_floor_area": null }, "geometry": { "type": "Point", "coordinates": [ 103.761095065760998, 1.31920159956387 ] } },
{ "type": "Feature", "properties": { "searchval": "NANYANG POLYTECHNIC", "blk_no": "180", "road_name": "ANG MO KIO AVENUE 8", "building": "NANYANG POLYTECHNIC", "address": "180 ANG MO KIO AVENUE 8 NANYANG POLYTECHNIC SINGAPORE 569830", "postal": "569830", "building_type": "Healthcare Facility", "gross_floor_area": null }, "geometry": { "type": "Point", "coordinates": [ 103.848423445403, 1.3778190310896 ] } },
{ "type": "Feature", "properties": { "searchval": "NANYANG POLYTECHNIC", "blk_no": "150", "road_name": "ANG MO KIO AVENUE 8", "building": "NANYANG POLYTECHNIC", "address": "150 ANG MO KIO AVENUE 8 NANYANG POLYTECHNIC SINGAPORE 569815", "postal": "569815", "building_type": "Healthcare Facility", "gross_floor_area": null }, "geometry": { "type": "Point", "coordinates": [ 103.849736066713007, 1.38111875111583 ] } },
{ "type": "Feature", "properties": { "searchval": "NANYANG PRIMARY SCHOOL", "blk_no": "52", "road_name": "KING'S ROAD", "building": "NANYANG PRIMARY SCHOOL", "address": "52 KING'S ROAD NANYANG PRIMARY SCHOOL SINGAPORE 268097", "postal": "268097", "building_type": "Healthcare Facility", "gross_floor_area": null }, "geometry": { "type": "Point", "coordinates": [ 103.807750155296006, 1.32084749904532 ] } },
{ "type": "Feature", "properties": { "searchval": "NANYANG PRIMARY SCHOOL", "blk_no": "51", "road_name": "CORONATION ROAD", "building": "NANYANG PRIMARY SCHOOL", "address": "51 CORONATION ROAD NANYANG PRIMARY SCHOOL SINGAPORE 269460", "postal": "269460", "building_type": "Healthcare Facility", "gross_floor_area": null }, "geometry": { "type": "Point", "coordinates": [ 103.806468059794994, 1.32111548993736 ] } },
{ "type": "Feature", "properties": { "searchval": "NANYANG TECHNOLOGICAL UNIVERSITY", "blk_no": "94", "road_name": "NANYANG CRESCENT", "building": "NANYANG TECHNOLOGICAL UNIVERSITY", "address": "94 NANYANG CRESCENT NANYANG TECHNOLOGICAL UNIVERSITY SINGAPORE 637034", "postal": "637034", "building_type": "Healthcare Facility", "gross_floor_area": null }, "geometry": { "type": "Point", "coordinates": [ 103.689223508671006, 1.35294937020326 ] } },
{ "type": "Feature", "properties": { "searchval": "NANYANG TECHNOLOGICAL UNIVERSITY", "blk_no": "63", "road_name": "NANYANG DRIVE", "building": "NANYANG TECHNOLOGICAL UNIVERSITY", "address": "63 NANYANG DRIVE NANYANG TECHNOLOGICAL UNIVERSITY SINGAPORE 636922", "postal": "636922", "building_type": "Healthcare Facility", "gross_floor_area": null }, "geometry": { "type": "Point", "coordinates": [ 103.681757553769998, 1.34755085440782 ] } },
{ "type": "Feature", "properties": { "searchval": "NAN CHIAU HIGH SCHOOL", "blk_no": "20", "road_name": "ANCHORVALE LINK", "building": "NAN CHIAU HIGH SCHOOL", "address": "20 ANCHORVALE LINK NAN CHIAU HIGH SCHOOL SINGAPORE 545079", "postal": "545079", "building_type": "Healthcare Facility", "gross_floor_area": null }, "geometry": { "type": "Point", "coordinates": [ 103.890004423763997, 1.38879582498399 ] } },
{ "type": "Feature", "properties": { "searchval": "NAN CHIAU PRIMARY SCHOOL", "blk_no": "50", "road_name": "ANCHORVALE LINK", "building": "NAN CHIAU PRIMARY SCHOOL", "address": "50 ANCHORVALE LINK NAN CHIAU PRIMARY SCHOOL SINGAPORE 545080", "postal": "545080", "building_type": "Healthcare Facility", "gross_floor_area": null }, "geometry": { "type": "Point", "coordinates": [ 103.891180928186003, 1.39221149906592 ] } },
{ "type": "Feature", "properties": { "searchval": "NAN HUA HIGH SCHOOL", "blk_no": "41", "road_name": "CLEMENTI AVENUE 1", "building": "NAN HUA HIGH SCHOOL", "address": "41 CLEMENTI AVENUE 1 NAN HUA HIGH SCHOOL SINGAPORE 129956", "postal": "129956", "building_type": "Healthcare Facility", "gross_floor_area": null }, "geometry": { "type": "Point", "coordinates": [ 103.768561446725002, 1.30809529518605 ] } },
{ "type": "Feature", "properties": { "searchval": "NAN HUA PRIMARY SCHOOL", "blk_no": "30", "road_name": "JALAN LEMPENG", "building": "NAN HUA PRIMARY SCHOOL", "address": "30 JALAN LEMPENG NAN HUA PRIMARY SCHOOL SINGAPORE 128806", "postal": "128806", "building_type": "Healthcare Facility", "gross_floor_area": null }, "geometry": { "type": "Point", "coordinates": [ 103.761095065760998, 1.31920159956387 ] } },
{ "type": "Feature", "properties": { "searchval": "NANYANG POLYTECHNIC", "blk_no": "180", "road_name": "ANG MO KIO AVENUE 8", "building": "NANYANG POLYTECHNIC", "address": "180 ANG MO KIO AVENUE 8 NANYANG POLYTECHNIC SINGAPORE 569830", "postal": "569830", "building_type": "Healthcare Facility", "gross_floor_area": null }, "geometry": { "type": "Point", "coordinates": [ 103.848423445403, 1.3778190310896 ] } },
{ "type": "Feature", "properties": { "searchval": "NANYANG POLYTECHNIC", "blk_no": "150", "road_name": "ANG MO KIO AVENUE 8", "building": "NANYANG POLYTECHNIC", "address": "150 ANG MO KIO AVENUE 8 NANYANG POLYTECHNIC SINGAPORE 569815", "postal": "569815", "building_type": "Healthcare Facility", "gross_floor_area": null }, "geometry": { "type": "Point", "coordinates": [ 103.849736066713007, 1.38111875111583 ] } },
{ "type": "Feature", "properties": { "searchval": "NANYANG PRIMARY SCHOOL", "blk_no": "52", "road_name": "KING'S ROAD", "building": "NANYANG PRIMARY SCHOOL", "address": "52 KING'S ROAD NANYANG PRIMARY SCHOOL SINGAPORE 268097", "postal": "268097", "building_type": "Healthcare Facility", "gross_floor_area": null }, "geometry": { "type": "Point", "coordinates": [ 103.807750155296006, 1.32084749904532 ] } },
{ "type": "Feature", "properties": { "searchval": "NANYANG PRIMARY SCHOOL", "blk_no": "51", "road_name": "CORONATION ROAD", "building": "NANYANG PRIMARY SCHOOL", "address": "51 CORONATION ROAD NANYANG PRIMARY SCHOOL SINGAPORE 269460", "postal": "269460", "building_type": "Healthcare Facility", "gross_floor_area": null }, "geometry": { "type": "Point", "coordinates": [ 103.806468059794994, 1.32111548993736 ] } },
{ "type": "Feature", "properties": { "searchval": "NANYANG TECHNOLOGICAL UNIVERSITY", "blk_no": "94", "road_name": "NANYANG CRESCENT", "building": "NANYANG TECHNOLOGICAL UNIVERSITY", "address": "94 NANYANG CRESCENT NANYANG TECHNOLOGICAL UNIVERSITY SINGAPORE 637034", "postal": "637034", "building_type": "Healthcare Facility", "gross_floor_area": null }, "geometry": { "type": "Point", "coordinates": [ 103.689223508671006, 1.35294937020326 ] } },
{ "type": "Feature", "properties": { "searchval": "NANYANG TECHNOLOGICAL UNIVERSITY", "blk_no": "63", "road_name": "NANYANG DRIVE", "building": "NANYANG TECHNOLOGICAL UNIVERSITY", "address": "63 NANYANG DRIVE NANYANG TECHNOLOGICAL UNIVERSITY SINGAPORE 636922", "postal": "636922", "building_type": "Healthcare Facility", "gross_floor_area": null }, "geometry": { "type": "Point", "coordinates": [ 103.681757553769998, 1.34755085440782 ] } },
{ "type": "Feature", "properties": { "searchval": "NAN CHIAU HIGH SCHOOL", "blk_no": "20", "road_name": "ANCHORVALE LINK", "building": "NAN CHIAU HIGH SCHOOL", "address": "20 ANCHORVALE LINK NAN CHIAU HIGH SCHOOL SINGAPORE 545079", "postal": "545079", "building_type": "Healthcare Facility", "gross_floor_area": null }, "geometry": { "type": "Point", "coordinates": [ 103.890004423763997, 1.38879582498399 ] } },
{ "type": "Feature", "properties": { "searchval": "NAN CHIAU PRIMARY SCHOOL", "blk_no": "50", "road_name": "ANCHORVALE LINK", "building": "NAN CHIAU PRIMARY SCHOOL", "address": "50 ANCHORVALE LINK NAN CHIAU PRIMARY SCHOOL SINGAPORE 545080", "postal": "545080", "building_type": "Healthcare Facility", "gross_floor_area": null }, "geometry": { "type": "Point", "coordinates": [ 103.891180928186003, 1.39221149906592 ] } },
{ "type": "Feature", "properties": { "searchval": "NAN HUA HIGH SCHOOL", "blk_no": "41", "road_name": "CLEMENTI AVENUE 1", "building": "NAN HUA HIGH SCHOOL", "address": "41 CLEMENTI AVENUE 1 NAN HUA HIGH SCHOOL SINGAPORE 129956", "postal": "129956", "building_type": "Healthcare Facility", "gross_floor_area": null }, "geometry": { "type": "Point", "coordinates": [ 103.768561446725002, 1.30809529518605 ] } },
{ "type": "Feature", "properties": { "searchval": "NAN HUA PRIMARY SCHOOL", "blk_no": "30", "road_name": "JALAN LEMPENG", "building": "NAN HUA PRIMARY SCHOOL", "address": "30 JALAN LEMPENG NAN HUA PRIMARY SCHOOL SINGAPORE 128806", "postal": "128806", "building_type": "Healthcare Facility", "gross_floor_area": null }, "geometry": { "type": "Point", "coordinates": [ 103.761095065760998, 1.31920159956387 ] } },
{ "type": "Feature", "properties": { "searchval": "NANYANG POLYTECHNIC", "blk_no": "180", "road_name": "ANG MO KIO AVENUE 8", "building": "NANYANG POLYTECHNIC", "address": "180 ANG MO KIO AVENUE 8 NANYANG POLYTECHNIC SINGAPORE 569830", "postal": "569830", "building_type": "Healthcare Facility", "gross_floor_area": null }, "geometry": { "type": "Point", "coordinates": [ 103.848423445403, 1.3778190310896 ] } },
{ "type": "Feature", "properties": { "searchval": "NANYANG POLYTECHNIC", "blk_no": "150", "road_name": "ANG MO KIO AVENUE 8", "building": "NANYANG POLYTECHNIC", "address": "150 ANG MO KIO AVENUE 8 NANYANG POLYTECHNIC SINGAPORE 569815", "postal": "569815", "building_type": "Healthcare Facility", "gross_floor_area": null }, "geometry": { "type": "Point", "coordinates": [ 103.849736066713007, 1.38111875111583 ] } },
{ "type": "Feature", "properties": { "searchval": "NANYANG PRIMARY SCHOOL", "blk_no": "52", "road_name": "KING'S ROAD", "building": "NANYANG PRIMARY SCHOOL", "address": "52 KING'S ROAD NANYANG PRIMARY SCHOOL SINGAPORE 268097", "postal": "268097", "building_type": "Healthcare Facility", "gross_floor_area": null }, "geometry": { "type": "Point", "coordinates": [ 103.807750155296006, 1.32084749904532 ] } },
{ "type": "Feature", "properties": { "searchval": "NANYANG PRIMARY SCHOOL", "blk_no": "51", "road_name": "CORONATION ROAD", "building": "NANYANG PRIMARY SCHOOL", "address": "51 CORONATION ROAD NANYANG PRIMARY SCHOOL SINGAPORE 269460", "postal": "269460", "building_type": "Healthcare Facility", "gross_floor_area": null }, "geometry": { "type": "Point", "coordinates": [ 103.806468059794994, 1.32111548993736 ] } },
{ "type": "Feature", "properties": { "searchval": "NANYANG TECHNOLOGICAL UNIVERSITY", "blk_no": "94", "road_name": "NANYANG CRESCENT", "building": "NANYANG TECHNOLOGICAL UNIVERSITY", "address": "94 NANYANG CRESCENT NANYANG TECHNOLOGICAL UNIVERSITY SINGAPORE 637034", "postal": "637034", "building_type": "Healthcare Facility", "gross_floor_area": null }, "geometry": { "type": "Point", "coordinates": [ 103.689223508671006, 1.35294937020326 ] } },
{ "type": "Feature", "properties": { "searchval": "NANYANG TECHNOLOGICAL UNIVERSITY", "blk_no": "63", "road_name": "NANYANG DRIVE", "building": "NANYANG TECHNOLOGICAL UNIVERSITY", "address": "63 NANYANG DRIVE NANYANG TECHNOLOGICAL UNIVERSITY SINGAPORE 636922", "postal": "636922", "building_type": "Healthcare Facility", "gross_floor_area": null }, "geometry": { "type": "Point", "coordinates": [ 103.681757553769998, 1.34755085440782 ] } },
{ "type": "Feature", "properties": { "searchval": "NAN CHIAU HIGH SCHOOL", "blk_no": "20", "road_name": "ANCHORVALE LINK", "building": "NAN CHIAU HIGH SCHOOL", "address": "20 ANCHORVALE LINK NAN CHIAU HIGH SCHOOL SINGAPORE 545079", "postal": "545079", "building_type": "Healthcare Facility", "gross_floor_area": null }, "geometry": { "type": "Point", "coordinates": [ 103.890004423763997, 1.38879582498399 ] } },
{ "type": "Feature", "properties": { "searchval": "NAN CHIAU PRIMARY SCHOOL", "blk_no": "50", "road_name": "ANCHORVALE LINK", "building": "NAN CHIAU PRIMARY SCHOOL", "address": "50 ANCHORVALE LINK NAN CHIAU PRIMARY SCHOOL SINGAPORE 545080", "postal": "545080", "building_type": "Healthcare Facility", "gross_floor_area": null }, "geometry": { "type": "Point", "coordinates": [ 103.891180928186003, 1.39221149906592 ] } },
{ "type": "Feature", "properties": { "searchval": "NAN HUA HIGH SCHOOL", "blk_no": "41", "road_name": "CLEMENTI AVENUE 1", "building": "NAN HUA HIGH SCHOOL", "address": "41 CLEMENTI AVENUE 1 NAN HUA HIGH SCHOOL SINGAPORE 129956", "postal": "129956", "building_type": "Healthcare Facility", "gross_floor_area": null }, "geometry": { "type": "Point", "coordinates": [ 103.768561446725002, 1.30809529518605 ] } },
{ "type": "Feature", "properties": { "searchval": "NAN HUA PRIMARY SCHOOL", "blk_no": "30", "road_name": "JALAN LEMPENG", "building": "NAN HUA PRIMARY SCHOOL", "address": "30 JALAN LEMPENG NAN HUA PRIMARY SCHOOL SINGAPORE 128806", "postal": "128806", "building_type": "Healthcare Facility", "gross_floor_area": null }, "geometry": { "type": "Point", "coordinates": [ 103.761095065760998, 1.31920159956387 ] } },
{ "type": "Feature", "properties": { "searchval": "NANYANG POLYTECHNIC", "blk_no": "180", "road_name": "ANG MO KIO AVENUE 8", "building": "NANYANG POLYTECHNIC", "address": "180 ANG MO KIO AVENUE 8 NANYANG POLYTECHNIC SINGAPORE 569830", "postal": "569830", "building_type": "Healthcare Facility", "gross_floor_area": null }, "geometry": { "type": "Point", "coordinates": [ 103.848423445403, 1.3778190310896 ] } },
{ "type": "Feature", "properties": { "searchval": "NANYANG POLYTECHNIC", "blk_no": "150", "road_name": "ANG MO KIO AVENUE 8", "building": "NANYANG POLYTECHNIC", "address": "150 ANG MO KIO AVENUE 8 NANYANG POLYTECHNIC SINGAPORE 569815", "postal": "569815", "building_type": "Healthcare Facility", "gross_floor_area": null }, "geometry": { "type": "Point", "coordinates": [ 103.849736066713007, 1.38111875111583 ] } },
{ "type": "Feature", "properties": { "searchval": "NANYANG PRIMARY SCHOOL", "blk_no": "52", "road_name": "KING'S ROAD", "building": "NANYANG PRIMARY SCHOOL", "address": "52 KING'S ROAD NANYANG PRIMARY SCHOOL SINGAPORE 268097", "postal": "268097", "building_type": "Healthcare Facility", "gross_floor_area": null }, "geometry": { "type": "Point", "coordinates": [ 103.807750155296006, 1.32084749904532 ] } },
{ "type": "Feature", "properties": { "searchval": "NANYANG PRIMARY SCHOOL", "blk_no": "51", "road_name": "CORONATION ROAD", "building": "NANYANG PRIMARY SCHOOL", "address": "51 CORONATION ROAD NANYANG PRIMARY SCHOOL SINGAPORE 269460", "postal": "269460", "building_type": "Healthcare Facility", "gross_floor_area": null }, "geometry": { "type": "Point", "coordinates": [ 103.806468059794994, 1.32111548993736 ] } },
{ "type": "Feature", "properties": { "searchval": "NANYANG TECHNOLOGICAL UNIVERSITY", "blk_no": "94", "road_name": "NANYANG CRESCENT", "building": "NANYANG TECHNOLOGICAL UNIVERSITY", "address": "94 NANYANG CRESCENT NANYANG TECHNOLOGICAL UNIVERSITY SINGAPORE 637034", "postal": "637034", "building_type": "Healthcare Facility", "gross_floor_area": null }, "geometry": { "type": "Point", "coordinates": [ 103.689223508671006, 1.35294937020326 ] } },
{ "type": "Feature", "properties": { "searchval": "NANYANG TECHNOLOGICAL UNIVERSITY", "blk_no": "63", "road_name": "NANYANG DRIVE", "building": "NANYANG TECHNOLOGICAL UNIVERSITY", "address": "63 NANYANG DRIVE NANYANG TECHNOLOGICAL UNIVERSITY SINGAPORE 636922", "postal": "636922", "building_type": "Healthcare Facility", "gross_floor_area": null }, "geometry": { "type": "Point", "coordinates": [ 103.681757553769998, 1.34755085440782 ] } },
{ "type": "Feature", "properties": { "searchval": "NAN CHIAU HIGH SCHOOL", "blk_no": "20", "road_name": "ANCHORVALE LINK", "building": "NAN CHIAU HIGH SCHOOL", "address": "20 ANCHORVALE LINK NAN CHIAU HIGH SCHOOL SINGAPORE 545079", "postal": "545079", "building_type": "Healthcare Facility", "gross_floor_area": null }, "geometry": { "type": "Point", "coordinates": [ 103.890004423763997, 1.38879582498399 ] } },
{ "type": "Feature", "properties": { "searchval": "NAN CHIAU PRIMARY SCHOOL", "blk_no": "50", "road_name": "ANCHORVALE LINK", "building": "NAN CHIAU PRIMARY SCHOOL", "address": "50 ANCHORVALE LINK NAN CHIAU PRIMARY SCHOOL SINGAPORE 545080", "postal": "545080", "building_type": "Healthcare Facility", "gross_floor_area": null }, "geometry": { "type": "Point", "coordinates": [ 103.891180928186003, 1.39221149906592 ] } },
{ "type": "Feature", "properties": { "searchval": "NAN HUA HIGH SCHOOL", "blk_no": "41", "road_name": "CLEMENTI AVENUE 1", "building": "NAN HUA HIGH SCHOOL", "address": "41 CLEMENTI AVENUE 1 NAN HUA HIGH SCHOOL SINGAPORE 129956", "postal": "129956", "building_type": "Healthcare Facility", "gross_floor_area": null }, "geometry": { "type": "Point", "coordinates": [ 103.768561446725002, 1.30809529518605 ] } },
{ "type": "Feature", "properties": { "searchval": "NAN HUA PRIMARY SCHOOL", "blk_no": "30", "road_name": "JALAN LEMPENG", "building": "NAN HUA PRIMARY SCHOOL", "address": "30 JALAN LEMPENG NAN HUA PRIMARY SCHOOL SINGAPORE 128806", "postal": "128806", "building_type": "Healthcare Facility", "gross_floor_area": null }, "geometry": { "type": "Point", "coordinates": [ 103.761095065760998, 1.31920159956387 ] } },
{ "type": "Feature", "properties": { "searchval": "NANYANG POLYTECHNIC", "blk_no": "180", "road_name": "ANG MO KIO AVENUE 8", "building": "NANYANG POLYTECHNIC", "address": "180 ANG MO KIO AVENUE 8 NANYANG POLYTECHNIC SINGAPORE 569830", "postal": "569830", "building_type": "Healthcare Facility", "gross_floor_area": null }, "geometry": { "type": "Point", "coordinates": [ 103.848423445403, 1.3778190310896 ] } },
{ "type": "Feature", "properties": { "searchval": "NANYANG POLYTECHNIC", "blk_no": "150", "road_name": "ANG MO KIO AVENUE 8", "building": "NANYANG POLYTECHNIC", "address": "150 ANG MO KIO AVENUE 8 NANYANG POLYTECHNIC SINGAPORE 569815", "postal": "569815", "building_type": "Healthcare Facility", "gross_floor_area": null }, "geometry": { "type": "Point", "coordinates": [ 103.849736066713007, 1.38111875111583 ] } },
{ "type": "Feature", "properties": { "searchval": "NANYANG PRIMARY SCHOOL", "blk_no": "52", "road_name": "KING'S ROAD", "building": "NANYANG PRIMARY SCHOOL", "address": "52 KING'S ROAD NANYANG PRIMARY SCHOOL SINGAPORE 268097", "postal": "268097", "building_type": "Healthcare Facility", "gross_floor_area": null }, "geometry": { "type": "Point", "coordinates": [ 103.807750155296006, 1.32084749904532 ] } },
{ "type": "Feature", "properties": { "searchval": "NANYANG PRIMARY SCHOOL", "blk_no": "51", "road_name": "CORONATION ROAD", "building": "NANYANG PRIMARY SCHOOL", "address": "51 CORONATION ROAD NANYANG PRIMARY SCHOOL SINGAPORE 269460", "postal": "269460", "building_type": "Healthcare Facility", "gross_floor_area": null }, "geometry": { "type": "Point", "coordinates": [ 103.806468059794994, 1.32111548993736 ] } },
{ "type": "Feature", "properties": { "searchval": "NANYANG TECHNOLOGICAL UNIVERSITY", "blk_no": "94", "road_name": "NANYANG CRESCENT", "building": "NANYANG TECHNOLOGICAL UNIVERSITY", "address": "94 NANYANG CRESCENT NANYANG TECHNOLOGICAL UNIVERSITY SINGAPORE 637034", "postal": "637034", "building_type": "Healthcare Facility", "gross_floor_area": null }, "geometry": { "type": "Point", "coordinates": [ 103.689223508671006, 1.35294937020326 ] } },
{ "type": "Feature", "properties": { "searchval": "NANYANG TECHNOLOGICAL UNIVERSITY", "blk_no": "63", "road_name": "NANYANG DRIVE", "building": "NANYANG TECHNOLOGICAL UNIVERSITY", "address": "63 NANYANG DRIVE NANYANG TECHNOLOGICAL UNIVERSITY SINGAPORE 636922", "postal": "636922", "building_type": "Healthcare Facility", "gross_floor_area": null }, "geometry": { "type": "Point", "coordinates": [ 103.681757553769998, 1.34755085440782 ] } },
{ "type": "Feature", "properties": { "searchval": "NAN CHIAU HIGH SCHOOL", "blk_no": "20", "road_name": "ANCHORVALE LINK", "building": "NAN CHIAU HIGH SCHOOL", "address": "20 ANCHORVALE LINK NAN CHIAU HIGH SCHOOL SINGAPORE 545079", "postal": "545079", "building_type": "Healthcare Facility", "gross_floor_area": null }, "geometry": { "type": "Point", "coordinates": [ 103.890004423763997, 1.38879582498399 ] } },
{ "type": "Feature", "properties": { "searchval": "NAN CHIAU PRIMARY SCHOOL", "blk_no": "50", "road_name": "ANCHORVALE LINK", "building": "NAN CHIAU PRIMARY SCHOOL", "address": "50 ANCHORVALE LINK NAN CHIAU PRIMARY SCHOOL SINGAPORE 545080", "postal": "545080", "building_type": "Healthcare Facility", "gross_floor_area": null }, "geometry": { "type": "Point", "coordinates": [ 103.891180928186003, 1.39221149906592 ] } },
{ "type": "Feature", "properties": { "searchval": "NAN HUA HIGH SCHOOL", "blk_no": "41", "road_name": "CLEMENTI AVENUE 1", "building": "NAN HUA HIGH SCHOOL", "address": "41 CLEMENTI AVENUE 1 NAN HUA HIGH SCHOOL SINGAPORE 129956", "postal": "129956", "building_type": "Healthcare Facility", "gross_floor_area": null }, "geometry": { "type": "Point", "coordinates": [ 103.768561446725002, 1.30809529518605 ] } },
{ "type": "Feature", "properties": { "searchval": "NAN HUA PRIMARY SCHOOL", "blk_no": "30", "road_name": "JALAN LEMPENG", "building": "NAN HUA PRIMARY SCHOOL", "address": "30 JALAN LEMPENG NAN HUA PRIMARY SCHOOL SINGAPORE 128806", "postal": "128806", "building_type": "Healthcare Facility", "gross_floor_area": null }, "geometry": { "type": "Point", "coordinates": [ 103.761095065760998, 1.31920159956387 ] } },
{ "type": "Feature", "properties": { "searchval": "NANYANG POLYTECHNIC", "blk_no": "180", "road_name": "ANG MO KIO AVENUE 8", "building": "NANYANG POLYTECHNIC", "address": "180 ANG MO KIO AVENUE 8 NANYANG POLYTECHNIC SINGAPORE 569830", "postal": "569830", "building_type": "Healthcare Facility", "gross_floor_area": null }, "geometry": { "type": "Point", "coordinates": [ 103.848423445403, 1.3778190310896 ] } },
{ "type": "Feature", "properties": { "searchval": "NANYANG POLYTECHNIC", "blk_no": "150", "road_name": "ANG MO KIO AVENUE 8", "building": "NANYANG POLYTECHNIC", "address": "150 ANG MO KIO AVENUE 8 NANYANG POLYTECHNIC SINGAPORE 569815", "postal": "569815", "building_type": "Healthcare Facility", "gross_floor_area": null }, "geometry": { "type": "Point", "coordinates": [ 103.849736066713007, 1.38111875111583 ] } },
{ "type": "Feature", "properties": { "searchval": "NANYANG PRIMARY SCHOOL", "blk_no": "52", "road_name": "KING'S ROAD", "building": "NANYANG PRIMARY SCHOOL", "address": "52 KING'S ROAD NANYANG PRIMARY SCHOOL SINGAPORE 268097", "postal": "268097", "building_type": "Healthcare Facility", "gross_floor_area": null }, "geometry": { "type": "Point", "coordinates": [ 103.807750155296006, 1.32084749904532 ] } },
{ "type": "Feature", "properties": { "searchval": "NANYANG PRIMARY SCHOOL", "blk_no": "51", "road_name": "CORONATION ROAD", "building": "NANYANG PRIMARY SCHOOL", "address": "51 CORONATION ROAD NANYANG PRIMARY SCHOOL SINGAPORE 269460", "postal": "269460", "building_type": "Healthcare Facility", "gross_floor_area": null }, "geometry": { "type": "Point", "coordinates": [ 103.806468059794994, 1.32111548993736 ] } },
{ "type": "Feature", "properties": { "searchval": "NANYANG TECHNOLOGICAL UNIVERSITY", "blk_no": "94", "road_name": "NANYANG CRESCENT", "building": "NANYANG TECHNOLOGICAL UNIVERSITY", "address": "94 NANYANG CRESCENT NANYANG TECHNOLOGICAL UNIVERSITY SINGAPORE 637034", "postal": "637034", "building_type": "Healthcare Facility", "gross_floor_area": null }, "geometry": { "type": "Point", "coordinates": [ 103.689223508671006, 1.35294937020326 ] } },
{ "type": "Feature", "properties": { "searchval": "NANYANG TECHNOLOGICAL UNIVERSITY", "blk_no": "63", "road_name": "NANYANG DRIVE", "building": "NANYANG TECHNOLOGICAL UNIVERSITY", "address": "63 NANYANG DRIVE NANYANG TECHNOLOGICAL UNIVERSITY SINGAPORE 636922", "postal": "636922", "building_type": "Healthcare Facility", "gross_floor_area": null }, "geometry": { "type": "Point", "coordinates": [ 103.681757553769998, 1.34755085440782 ] } },
{ "type": "Feature", "properties": { "searchval": "NAN CHIAU HIGH SCHOOL", "blk_no": "20", "road_name": "ANCHORVALE LINK", "building": "NAN CHIAU HIGH SCHOOL", "address": "20 ANCHORVALE LINK NAN CHIAU HIGH SCHOOL SINGAPORE 545079", "postal": "545079", "building_type": "Healthcare Facility", "gross_floor_area": null }, "geometry": { "type": "Point", "coordinates": [ 103.890004423763997, 1.38879582498399 ] } },
{ "type": "Feature", "properties": { "searchval": "NAN CHIAU PRIMARY SCHOOL", "blk_no": "50", "road_name": "ANCHORVALE LINK", "building": "NAN CHIAU PRIMARY SCHOOL", "address": "50 ANCHORVALE LINK NAN CHIAU PRIMARY SCHOOL SINGAPORE 545080", "postal": "545080", "building_type": "Healthcare Facility", "gross_floor_area": null }, "geometry": { "type": "Point", "coordinates": [ 103.891180928186003, 1.39221149906592 ] } },
{ "type": "Feature", "properties": { "searchval": "NAN HUA HIGH SCHOOL", "blk_no": "41", "road_name": "CLEMENTI AVENUE 1", "building": "NAN HUA HIGH SCHOOL", "address": "41 CLEMENTI AVENUE 1 NAN HUA HIGH SCHOOL SINGAPORE 129956", "postal": "129956", "building_type": "Healthcare Facility", "gross_floor_area": null }, "geometry": { "type": "Point", "coordinates": [ 103.768561446725002, 1.30809529518605 ] } },
{ "type": "Feature", "properties": { "searchval": "NAN HUA PRIMARY SCHOOL", "blk_no": "30", "road_name": "JALAN LEMPENG", "building": "NAN HUA PRIMARY SCHOOL", "address": "30 JALAN LEMPENG NAN HUA PRIMARY SCHOOL SINGAPORE 128806", "postal": "128806", "building_type": "Healthcare Facility", "gross_floor_area": null }, "geometry": { "type": "Point", "coordinates": [ 103.761095065760998, 1.31920159956387 ] } },
{ "type": "Feature", "properties": { "searchval": "NANYANG POLYTECHNIC", "blk_no": "180", "road_name": "ANG MO KIO AVENUE 8", "building": "NANYANG POLYTECHNIC", "address": "180 ANG MO KIO AVENUE 8 NANYANG POLYTECHNIC SINGAPORE 569830", "postal": "569830", "building_type": "Healthcare Facility", "gross_floor_area": null }, "geometry": { "type": "Point", "coordinates": [ 103.848423445403, 1.3778190310896 ] } },
{ "type": "Feature", "properties": { "searchval": "NANYANG POLYTECHNIC", "blk_no": "150", "road_name": "ANG MO KIO AVENUE 8", "building": "NANYANG POLYTECHNIC", "address": "150 ANG MO KIO AVENUE 8 NANYANG POLYTECHNIC SINGAPORE 569815", "postal": "569815", "building_type": "Healthcare Facility", "gross_floor_area": null }, "geometry": { "type": "Point", "coordinates": [ 103.849736066713007, 1.38111875111583 ] } },
{ "type": "Feature", "properties": { "searchval": "NANYANG PRIMARY SCHOOL", "blk_no": "52", "road_name": "KING'S ROAD", "building": "NANYANG PRIMARY SCHOOL", "address": "52 KING'S ROAD NANYANG PRIMARY SCHOOL SINGAPORE 268097", "postal": "268097", "building_type": "Healthcare Facility", "gross_floor_area": null }, "geometry": { "type": "Point", "coordinates": [ 103.807750155296006, 1.32084749904532 ] } },
{ "type": "Feature", "properties": { "searchval": "NANYANG PRIMARY SCHOOL", "blk_no": "51", "road_name": "CORONATION ROAD", "building": "NANYANG PRIMARY SCHOOL", "address": "51 CORONATION ROAD NANYANG PRIMARY SCHOOL SINGAPORE 269460", "postal": "269460", "building_type": "Healthcare Facility", "gross_floor_area": null }, "geometry": { "type": "Point", "coordinates": [ 103.806468059794994, 1.32111548993736 ] } },
{ "type": "Feature", "properties": { "searchval": "NANYANG TECHNOLOGICAL UNIVERSITY", "blk_no": "94", "road_name": "NANYANG CRESCENT", "building": "NANYANG TECHNOLOGICAL UNIVERSITY", "address": "94 NANYANG CRESCENT NANYANG TECHNOLOGICAL UNIVERSITY SINGAPORE 637034", "postal": "637034", "building_type": "Healthcare Facility", "gross_floor_area": null }, "geometry": { "type": "Point", "coordinates": [ 103.689223508671006, 1.35294937020326 ] } },
{ "type": "Feature", "properties": { "searchval": "NANYANG TECHNOLOGICAL UNIVERSITY", "blk_no": "63", "road_name": "NANYANG DRIVE", "building": "NANYANG TECHNOLOGICAL UNIVERSITY", "address": "63 NANYANG DRIVE NANYANG TECHNOLOGICAL UNIVERSITY SINGAPORE 636922", "postal": "636922", "building_type": "Healthcare Facility", "gross_floor_area": null }, "geometry": { "type": "Point", "coordinates": [ 103.681757553769998, 1.34755085440782 ] } },
{ "type": "Feature", "properties": { "searchval": "SINGAPORE THONG CHAI MEDICAL INSTITUTION", "blk_no": "50", "road_name": "CHIN SWEE ROAD", "building": "SINGAPORE THONG CHAI MEDICAL INSTITUTION", "address": "50 CHIN SWEE ROAD SINGAPORE THONG CHAI MEDICAL INSTITUTION SINGAPORE 169874", "postal": "169874", "building_type": "Healthcare Facility", "gross_floor_area": "5,232" }, "geometry": { "type": "Point", "coordinates": [ 103.840270100813001, 1.28764537765146 ] } }
]
}
