{"type":"FeatureCollection","features":[{"type":"Feature","geometry":{"type":"Point","coordinates":[103.848283433386,1.29097101454992]},"properties":{"searchval":"DESIGN SINGAPORE OFFICE","blk_no":"140","road_name":"HILL STREET","building":"DESIGN SINGAPORE OFFICE","address":"140 HILL STREET DESIGN SINGAPORE OFFICE SINGAPORE 179369","postal":"179369","year_completed":"2002","building_type":"Commercial Building","main_building_function":"Office","gross_floor_area":"26,137"}},{"type":"Feature","geometry":{"type":"Point","coordinates":[103.820240071395,1.26336541525215]},"properties":{"searchval":"SINGAPORE CRUISE CENTRE","blk_no":"1","road_name":"MARITIME SQUARE","building":"SINGAPORE CRUISE CENTRE","address":"1 MARITIME SQUARE SINGAPORE CRUISE CENTRE SINGAPORE 099253","postal":"099253","year_completed":"1979","building_type":"Commercial Building","main_building_function":"Office","gross_floor_area":"169,727"}},{"type":"Feature","geometry":{"type":"Point","coordinates":[103.854467487996,1.294801401498]},"properties":{"searchval":"RAFFLES HOTEL SINGAPORE","blk_no":"1","road_name":"BEACH ROAD","building":"RAFFLES HOTEL SINGAPORE","address":"1 BEACH ROAD RAFFLES HOTEL SINGAPORE SINGAPORE 189673","postal":"189673","year_completed":"2020","building_type":"Commercial Building","main_building_function":"Hotel","gross_floor_area":"43,360"}},{"type":"Feature","geometry":{"type":"Point","coordinates":[103.86292230709,1.28907272663479]},"properties":{"searchval":"SINGAPORE FLYER","blk_no":"30","road_name":"RAFFLES AVENUE","building":"SINGAPORE FLYER","address":"30 RAFFLES AVENUE SINGAPORE FLYER SINGAPORE 039803","postal":"039803","year_completed":"2009","building_type":"Commercial Building","main_building_function":"Retail","gross_floor_area":"13,590"}},{"type":"Feature","geometry":{"type":"Point","coordinates":[103.862406973531,1.2903463502917]},"properties":{"searchval":"SINGAPORE FLYER (MSCP)","blk_no":"30","road_name":"RAFFLES AVENUE","building":"SINGAPORE FLYER (MSCP)","address":"30 RAFFLES AVENUE SINGAPORE FLYER (MSCP) SINGAPORE 039803","postal":"039803","year_completed":"2009","building_type":"Commercial Building","main_building_function":"Retail","gross_floor_area":"13,590"}},{"type":"Feature","geometry":{"type":"Point","coordinates":[103.849654790724,1.27992197150836]},"properties":{"searchval":"QT SINGAPORE","blk_no":"35","road_name":"ROBINSON ROAD","building":"QT SINGAPORE","address":"35 ROBINSON ROAD QT SINGAPORE SINGAPORE 068876","postal":"068876","year_completed":"2014","building_type":"Commercial Building","main_building_function":"Hotel","gross_floor_area":"7,450"}},{"type":"Feature","geometry":{"type":"Point","coordinates":[103.837414946943,1.28821990429676]},"properties":{"searchval":"HOTEL MIRAMAR SINGAPORE","blk_no":"401","road_name":"HAVELOCK ROAD","building":"HOTEL MIRAMAR SINGAPORE","address":"401 HAVELOCK ROAD HOTEL MIRAMAR SINGAPORE SINGAPORE 169631","postal":"169631","year_completed":"1971","building_type":"Commercial Building","main_building_function":"Hotel","gross_floor_area":"23,554"}},{"type":"Feature","geometry":{"type":"Point","coordinates":[103.852104296174,1.28469478511339]},"properties":{"searchval":"SINGAPORE LAND TOWER","blk_no":"50","road_name":"RAFFLES PLACE","building":"SINGAPORE LAND TOWER","address":"50 RAFFLES PLACE SINGAPORE LAND TOWER SINGAPORE 048623","postal":"048623","year_completed":"1982","building_type":"Commercial Building","main_building_function":"Office","gross_floor_area":"64,277"}},{"type":"Feature","geometry":{"type":"Point","coordinates":[103.836340953476,1.30206450556085]},"properties":{"searchval":"HILTON SINGAPORE ORCHARD","blk_no":"333","road_name":"ORCHARD ROAD","building":"HILTON SINGAPORE ORCHARD","address":"333 ORCHARD ROAD HILTON SINGAPORE ORCHARD SINGAPORE 238867","postal":"238867","year_completed":"1970","building_type":"Commercial Building","main_building_function":"Hotel","gross_floor_area":"127,860"}},{"type":"Feature","geometry":{"type":"Point","coordinates":[103.829339596247,1.30694456840806]},"properties":{"searchval":"BETHANY CHURCH SINGAPORE","blk_no":"400","road_name":"ORCHARD ROAD","building":"BETHANY CHURCH SINGAPORE","address":"400 ORCHARD ROAD BETHANY CHURCH SINGAPORE SINGAPORE 238875","postal":"238875","year_completed":"1975","building_type":"Commercial Building","main_building_function":"Mixed Development","gross_floor_area":"42,809"}},{"type":"Feature","geometry":{"type":"Point","coordinates":[103.860603437294,1.28346618479588]},"properties":{"searchval":"MARINA BAY SANDS SINGAPORE","blk_no":"1","road_name":"BAYFRONT AVENUE","building":"MARINA BAY SANDS SINGAPORE","address":"1 BAYFRONT AVENUE MARINA BAY SANDS SINGAPORE SINGAPORE 018971","postal":"018971","year_completed":"2010","building_type":"Commercial Building","main_building_function":"Mixed Development","gross_floor_area":"581,511"}},{"type":"Feature","geometry":{"type":"Point","coordinates":[103.860220223356,1.28258336683978]},"properties":{"searchval":"TOWER 1 (MARINA BAY SANDS SINGAPORE)","blk_no":"1","road_name":"BAYFRONT AVENUE","building":"TOWER 1 (MARINA BAY SANDS SINGAPORE)","address":"1 BAYFRONT AVENUE TOWER 1 (MARINA BAY SANDS SINGAPORE) SINGAPORE 018971","postal":"018971","year_completed":"2010","building_type":"Commercial Building","main_building_function":"Mixed Development","gross_floor_area":"581,511"}},{"type":"Feature","geometry":{"type":"Point","coordinates":[103.860720977246,1.28360346911488]},"properties":{"searchval":"TOWER 2 (MARINA BAY SANDS SINGAPORE)","blk_no":"1","road_name":"BAYFRONT AVENUE","building":"TOWER 2 (MARINA BAY SANDS SINGAPORE)","address":"1 BAYFRONT AVENUE TOWER 2 (MARINA BAY SANDS SINGAPORE) SINGAPORE 018971","postal":"018971","year_completed":"2010","building_type":"Commercial Building","main_building_function":"Mixed Development","gross_floor_area":"581,511"}},{"type":"Feature","geometry":{"type":"Point","coordinates":[103.861005919029,1.28466203640592]},"properties":{"searchval":"TOWER 3 (MARINA BAY SANDS SINGAPORE)","blk_no":"1","road_name":"BAYFRONT AVENUE","building":"TOWER 3 (MARINA BAY SANDS SINGAPORE)","address":"1 BAYFRONT AVENUE TOWER 3 (MARINA BAY SANDS SINGAPORE) SINGAPORE 018971","postal":"018971","year_completed":"2010","building_type":"Commercial Building","main_building_function":"Mixed Development","gross_floor_area":"581,511"}},{"type":"Feature","geometry":{"type":"Point","coordinates":[103.844111318107,1.29815265394505]},"properties":{"searchval":"SINGAPORE SHOPPING CENTRE","blk_no":"190","road_name":"CLEMENCEAU AVENUE","building":"SINGAPORE SHOPPING CENTRE","address":"190 CLEMENCEAU AVENUE SINGAPORE SHOPPING CENTRE SINGAPORE 239924","postal":"239924","year_completed":"1982","building_type":"Commercial Building","main_building_function":"Retail","gross_floor_area":"11,256"}},{"type":"Feature","geometry":{"type":"Point","coordinates":[103.84554505161,1.32614785629346]},"properties":{"searchval":"IBIS SINGAPORE NOVENA","blk_no":"6","road_name":"IRRAWADDY ROAD","building":"IBIS SINGAPORE NOVENA","address":"6 IRRAWADDY ROAD IBIS SINGAPORE NOVENA SINGAPORE 329543","postal":"329543","year_completed":"2011","building_type":"Commercial Building","main_building_function":"Hotel","gross_floor_area":"6,407"}},{"type":"Feature","geometry":{"type":"Point","coordinates":[103.844510674993,1.28808111341912]},"properties":{"searchval":"PARK REGIS BY PRINCE SINGAPORE","blk_no":"23","road_name":"MERCHANT ROAD","building":"PARK REGIS BY PRINCE SINGAPORE","address":"23 MERCHANT ROAD PARK REGIS BY PRINCE SINGAPORE SINGAPORE 058268","postal":"058268","year_completed":"2010","building_type":"Commercial Building","main_building_function":"Hotel","gross_floor_area":"11,938"}},{"type":"Feature","geometry":{"type":"Point","coordinates":[103.824447113771,1.24945446387238]},"properties":{"searchval":"CAPELLA HOTEL, SINGAPORE","blk_no":"1","road_name":"THE KNOLLS","building":"CAPELLA HOTEL, SINGAPORE","address":"1 THE KNOLLS CAPELLA HOTEL, SINGAPORE SINGAPORE 098297","postal":"098297","year_completed":"2008","building_type":"Commercial Building","main_building_function":"Hotel","gross_floor_area":"42,461"}},{"type":"Feature","geometry":{"type":"Point","coordinates":[103.849332451138,1.29862529263979]},"properties":{"searchval":"RENDEZVOUS GRAND HOTEL SINGAPORE","blk_no":"9","road_name":"BRAS BASAH ROAD","building":"RENDEZVOUS GRAND HOTEL SINGAPORE","address":"9 BRAS BASAH ROAD RENDEZVOUS GRAND HOTEL SINGAPORE SINGAPORE 189559","postal":"189559","year_completed":"1998","building_type":"Commercial Building","main_building_function":"Hotel","gross_floor_area":"19,720"}},{"type":"Feature","geometry":{"type":"Point","coordinates":[103.849316124707,1.29858300811483]},"properties":{"searchval":"RENDEZVOUS HOTEL SINGAPORE","blk_no":"9","road_name":"BRAS BASAH ROAD","building":"RENDEZVOUS HOTEL SINGAPORE","address":"9 BRAS BASAH ROAD RENDEZVOUS HOTEL SINGAPORE SINGAPORE 189559","postal":"189559","year_completed":"1998","building_type":"Commercial Building","main_building_function":"Hotel","gross_floor_area":"19,720"}},{"type":"Feature","geometry":{"type":"Point","coordinates":[103.835810152627,1.30820322497533]},"properties":{"searchval":"VIBE HOTEL SINGAPORE ORCHARD","blk_no":"24","road_name":"MOUNT ELIZABETH","building":"VIBE HOTEL SINGAPORE ORCHARD","address":"24 MOUNT ELIZABETH VIBE HOTEL SINGAPORE ORCHARD SINGAPORE 228518","postal":"228518","year_completed":"1993","building_type":"Commercial Building","main_building_function":"Hotel","gross_floor_area":"16,872"}},{"type":"Feature","geometry":{"type":"Point","coordinates":[103.827764147951,1.30661330825123]},"properties":{"searchval":"ORCHARD RENDEZVOUS HOTEL, SINGAPORE","blk_no":"1","road_name":"TANGLIN ROAD","building":"ORCHARD RENDEZVOUS HOTEL, SINGAPORE","address":"1 TANGLIN ROAD ORCHARD RENDEZVOUS HOTEL, SINGAPORE SINGAPORE 247905","postal":"247905","year_completed":"1977","building_type":"Commercial Building","main_building_function":"Hotel","gross_floor_area":"26,657"}},{"type":"Feature","geometry":{"type":"Point","coordinates":[103.850948906654,1.29063748875259]},"properties":{"searchval":"SINGAPORE MEDIATION CENTRE","blk_no":"1","road_name":"SUPREME COURT LANE","building":"SINGAPORE MEDIATION CENTRE","address":"1 SUPREME COURT LANE SINGAPORE MEDIATION CENTRE SINGAPORE 178879","postal":"178879","year_completed":"2005","building_type":"Commercial Building","main_building_function":"Office","gross_floor_area":"58,824"}},{"type":"Feature","geometry":{"type":"Point","coordinates":[103.834188484711,1.28896723470825]},"properties":{"searchval":"HOLIDAY INN SINGAPORE ATRIUM","blk_no":"317","road_name":"OUTRAM ROAD","building":"HOLIDAY INN SINGAPORE ATRIUM","address":"317 OUTRAM ROAD HOLIDAY INN SINGAPORE ATRIUM SINGAPORE 169075","postal":"169075","year_completed":"1986","building_type":"Commercial Building","main_building_function":"Hotel","gross_floor_area":"54,042"}},{"type":"Feature","geometry":{"type":"Point","coordinates":[103.843549530562,1.27492765838262]},"properties":{"searchval":"AMARA SINGAPORE","blk_no":"165","road_name":"TANJONG PAGAR ROAD","building":"AMARA SINGAPORE","address":"165 TANJONG PAGAR ROAD AMARA SINGAPORE SINGAPORE 088539","postal":"088539","year_completed":"1998","building_type":"Commercial Building","main_building_function":"Mixed Development","gross_floor_area":"52,095"}},{"type":"Feature","geometry":{"type":"Point","coordinates":[103.845559591547,1.29596841133495]},"properties":{"searchval":"METT SINGAPORE","blk_no":"11","road_name":"CANNING WALK","building":"METT SINGAPORE","address":"11 CANNING WALK METT SINGAPORE SINGAPORE 178881","postal":"178881","year_completed":"2012","building_type":"Commercial Building","main_building_function":"Hotel","gross_floor_area":"8,922"}},{"type":"Feature","geometry":{"type":"Point","coordinates":[103.844588546607,1.28647356558562]},"properties":{"searchval":"FURAMA CITY CENTRE SINGAPORE","blk_no":"60","road_name":"EU TONG SEN STREET","building":"FURAMA CITY CENTRE SINGAPORE","address":"60 EU TONG SEN STREET FURAMA CITY CENTRE SINGAPORE SINGAPORE 059804","postal":"059804","year_completed":"1984","building_type":"Commercial Building","main_building_function":"Hotel","gross_floor_area":"25,857"}},{"type":"Feature","geometry":{"type":"Point","coordinates":[103.844628721032,1.28649701803051]},"properties":{"searchval":"FURAMA CITY CENTRE SINGAPORE / SHOPPING CENTRE","blk_no":"60","road_name":"EU TONG SEN STREET","building":"FURAMA CITY CENTRE SINGAPORE / SHOPPING CENTRE","address":"60 EU TONG SEN STREET FURAMA CITY CENTRE SINGAPORE / SHOPPING CENTRE SINGAPORE 059804","postal":"059804","year_completed":"1984","building_type":"Commercial Building","main_building_function":"Hotel","gross_floor_area":"25,857"}},{"type":"Feature","geometry":{"type":"Point","coordinates":[103.833257176622,1.30637300291267]},"properties":{"searchval":"GRAND HYATT SINGAPORE","blk_no":"10","road_name":"SCOTTS ROAD","building":"GRAND HYATT SINGAPORE","address":"10 SCOTTS ROAD GRAND HYATT SINGAPORE SINGAPORE 228211","postal":"228211","year_completed":"1970","building_type":"Commercial Building","main_building_function":"Hotel","gross_floor_area":"84,230"}},{"type":"Feature","geometry":{"type":"Point","coordinates":[103.854748154489,1.31198097962561]},"properties":{"searchval":"HOLIDAY INN SINGAPORE LITTLE INDIA","blk_no":"10","road_name":"FARRER PARK STATION ROAD","building":"HOLIDAY INN SINGAPORE LITTLE INDIA","address":"10 FARRER PARK STATION ROAD HOLIDAY INN SINGAPORE LITTLE INDIA SINGAPORE 217564","postal":"217564","year_completed":"2017","building_type":"Commercial Building","main_building_function":"Hotel","gross_floor_area":"8,657"}},{"type":"Feature","geometry":{"type":"Point","coordinates":[103.84201075936,1.289136974408]},"properties":{"searchval":"HOLIDAY INN EXPRESS SINGAPORE CLARKE QUAY","blk_no":"2","road_name":"MAGAZINE ROAD","building":"HOLIDAY INN EXPRESS SINGAPORE CLARKE QUAY","address":"2 MAGAZINE ROAD HOLIDAY INN EXPRESS SINGAPORE CLARKE QUAY SINGAPORE 059573","postal":"059573","year_completed":"2014","building_type":"Commercial Building","main_building_function":"Hotel","gross_floor_area":"11,783"}},{"type":"Feature","geometry":{"type":"Point","coordinates":[103.826788133417,1.31122438238089]},"properties":{"searchval":"SHANGRI-LA SINGAPORE","blk_no":"22","road_name":"ORANGE GROVE ROAD","building":"SHANGRI-LA SINGAPORE","address":"22 ORANGE GROVE ROAD SHANGRI-LA SINGAPORE SINGAPORE 258350","postal":"258350","year_completed":"1972","building_type":"Commercial Building","main_building_function":"Hotel","gross_floor_area":"79,709"}},{"type":"Feature","geometry":{"type":"Point","coordinates":[103.846290272366,1.28563914231387]},"properties":{"searchval":"PARKROYAL COLLECTION PICKERING, SINGAPORE","blk_no":"3","road_name":"UPPER PICKERING STREET","building":"PARKROYAL COLLECTION PICKERING, SINGAPORE","address":"3 UPPER PICKERING STREET PARKROYAL COLLECTION PICKERING, SINGAPORE SINGAPORE 058289","postal":"058289","year_completed":"2012","building_type":"Commercial Building","main_building_function":"Hotel","gross_floor_area":"29,227"}},{"type":"Feature","geometry":{"type":"Point","coordinates":[103.836603810879,1.28937099358897]},"properties":{"searchval":"FOUR POINTS BY SHERATON SINGAPORE, RIVERVIEW","blk_no":"382","road_name":"HAVELOCK ROAD","building":"FOUR POINTS BY SHERATON SINGAPORE, RIVERVIEW","address":"382 HAVELOCK ROAD FOUR POINTS BY SHERATON SINGAPORE, RIVERVIEW SINGAPORE 169629","postal":"169629","year_completed":"1985","building_type":"Commercial Building","main_building_function":"Hotel","gross_floor_area":"21,089"}},{"type":"Feature","geometry":{"type":"Point","coordinates":[103.904358869276,1.3051475444886]},"properties":{"searchval":"HOTEL INDIGO SINGAPORE KATONG","blk_no":"86","road_name":"EAST COAST ROAD","building":"HOTEL INDIGO SINGAPORE KATONG","address":"86 EAST COAST ROAD HOTEL INDIGO SINGAPORE KATONG SINGAPORE 428788","postal":"428788","year_completed":"2016","building_type":"Commercial Building","main_building_function":"Hotel","gross_floor_area":"25,200"}},{"type":"Feature","geometry":{"type":"Point","coordinates":[103.82859041681,1.30762282594562]},"properties":{"searchval":"ORCHARD HOTEL SINGAPORE","blk_no":"442","road_name":"ORCHARD ROAD","building":"ORCHARD HOTEL SINGAPORE","address":"442 ORCHARD ROAD ORCHARD HOTEL SINGAPORE SINGAPORE 238879","postal":"238879","year_completed":"1980","building_type":"Commercial Building","main_building_function":"Hotel","gross_floor_area":"44,097"}},{"type":"Feature","geometry":{"type":"Point","coordinates":[103.735820581071,1.33283873321146]},"properties":{"searchval":"SCIENCE CENTRE SINGAPORE","blk_no":"15","road_name":"SCIENCE CENTRE ROAD","building":"SCIENCE CENTRE SINGAPORE","address":"15 SCIENCE CENTRE ROAD SCIENCE CENTRE SINGAPORE SINGAPORE 609081","postal":"609081","year_completed":"1975","building_type":"Commercial Building","main_building_function":"Office","gross_floor_area":"31,296"}},{"type":"Feature","geometry":{"type":"Point","coordinates":[103.736222440361,1.33277821105235]},"properties":{"searchval":"SINGAPORE SCIENCE CENTRE","blk_no":"15","road_name":"SCIENCE CENTRE ROAD","building":"SINGAPORE SCIENCE CENTRE","address":"15 SCIENCE CENTRE ROAD SINGAPORE SCIENCE CENTRE SINGAPORE 609081","postal":"609081","year_completed":"1975","building_type":"Commercial Building","main_building_function":"Office","gross_floor_area":"31,296"}},{"type":"Feature","geometry":{"type":"Point","coordinates":[103.845060205824,1.27368777727476]},"properties":{"searchval":"M HOTEL SINGAPORE","blk_no":"81","road_name":"ANSON ROAD","building":"M HOTEL SINGAPORE","address":"81 ANSON ROAD M HOTEL SINGAPORE SINGAPORE 079908","postal":"079908","year_completed":"1985","building_type":"Commercial Building","main_building_function":"Hotel","gross_floor_area":"31,033"}},{"type":"Feature","geometry":{"type":"Point","coordinates":[103.857026955372,1.29157395654843]},"properties":{"searchval":"PARKROYAL COLLECTION MARINA BAY, SINGAPORE","blk_no":"6","road_name":"RAFFLES BOULEVARD","building":"PARKROYAL COLLECTION MARINA BAY, SINGAPORE","address":"6 RAFFLES BOULEVARD PARKROYAL COLLECTION MARINA BAY, SINGAPORE SINGAPORE 039594","postal":"039594","year_completed":"1986","building_type":"Commercial Building","main_building_function":"Retail","gross_floor_area":"452,045"}},{"type":"Feature","geometry":{"type":"Point","coordinates":[103.85150646656,1.30091639714583]},"properties":{"searchval":"LYF BUGIS SINGAPORE","blk_no":"200","road_name":"MIDDLE ROAD","building":"LYF BUGIS SINGAPORE","address":"200 MIDDLE ROAD LYF BUGIS SINGAPORE SINGAPORE 188980","postal":"188980","year_completed":"2013","building_type":"Commercial Building","main_building_function":"Hotel","gross_floor_area":"8,784"}},{"type":"Feature","geometry":{"type":"Point","coordinates":[103.851968750878,1.3084027270561]},"properties":{"searchval":"HILTON GARDEN INN SINGAPORE SERANGOON","blk_no":"3","road_name":"BELILIOS ROAD","building":"HILTON GARDEN INN SINGAPORE SERANGOON","address":"3 BELILIOS ROAD HILTON GARDEN INN SINGAPORE SERANGOON SINGAPORE 219924","postal":"219924","year_completed":"2015","building_type":"Commercial Building","main_building_function":"Hotel","gross_floor_area":"10,803"}},{"type":"Feature","geometry":{"type":"Point","coordinates":[103.824907858738,1.30465158301868]},"properties":{"searchval":"CONRAD SINGAPORE ORCHARD","blk_no":"1","road_name":"CUSCADEN ROAD","building":"CONRAD SINGAPORE ORCHARD","address":"1 CUSCADEN ROAD CONRAD SINGAPORE ORCHARD SINGAPORE 249715","postal":"249715","year_completed":"1982","building_type":"Commercial Building","main_building_function":"Hotel","gross_floor_area":"42,483"}},{"type":"Feature","geometry":{"type":"Point","coordinates":[103.990313764139,1.38831997107217]},"properties":{"searchval":"SINGAPORE AVIATION ACADEMY","blk_no":"1","road_name":"AVIATION DRIVE","building":"SINGAPORE AVIATION ACADEMY","address":"1 AVIATION DRIVE SINGAPORE AVIATION ACADEMY SINGAPORE 499867","postal":"499867","year_completed":"1992","building_type":"Commercial Building","main_building_function":"Office","gross_floor_area":"22,368"}},{"type":"Feature","geometry":{"type":"Point","coordinates":[103.855664683346,1.31051681728548]},"properties":{"searchval":"NOVOTEL SINGAPORE ON KITCHENER","blk_no":"181","road_name":"KITCHENER ROAD","building":"NOVOTEL SINGAPORE ON KITCHENER","address":"181 KITCHENER ROAD NOVOTEL SINGAPORE ON KITCHENER SINGAPORE 208533","postal":"208533","year_completed":"1981","building_type":"Commercial Building","main_building_function":"Hotel","gross_floor_area":"37,721"}},{"type":"Feature","geometry":{"type":"Point","coordinates":[103.960360055236,1.33440171008315]},"properties":{"searchval":"SINGAPORE EXPO","blk_no":"1","road_name":"EXPO DRIVE","building":"SINGAPORE EXPO","address":"1 EXPO DRIVE SINGAPORE EXPO SINGAPORE 486150","postal":"486150","year_completed":"1999","building_type":"Commercial Building","main_building_function":"Retail","gross_floor_area":"170,288"}},{"type":"Feature","geometry":{"type":"Point","coordinates":[103.957882759671,1.33367561107333]},"properties":{"searchval":"SINGAPORE EXPO (FOYER 1)","blk_no":"1","road_name":"EXPO DRIVE","building":"SINGAPORE EXPO (FOYER 1)","address":"1 EXPO DRIVE SINGAPORE EXPO (FOYER 1) SINGAPORE 486150","postal":"486150","year_completed":"1999","building_type":"Commercial Building","main_building_function":"Retail","gross_floor_area":"170,288"}},{"type":"Feature","geometry":{"type":"Point","coordinates":[103.96104533609,1.33566676538059]},"properties":{"searchval":"SINGAPORE EXPO (FOYER 2)","blk_no":"1","road_name":"EXPO DRIVE","building":"SINGAPORE EXPO (FOYER 2)","address":"1 EXPO DRIVE SINGAPORE EXPO (FOYER 2) SINGAPORE 486150","postal":"486150","year_completed":"1999","building_type":"Commercial Building","main_building_function":"Retail","gross_floor_area":"170,288"}},{"type":"Feature","geometry":{"type":"Point","coordinates":[103.95696858544,1.33250765907148]},"properties":{"searchval":"SINGAPORE EXPO (HALL 1)","blk_no":"1","road_name":"EXPO DRIVE","building":"SINGAPORE EXPO (HALL 1)","address":"1 EXPO DRIVE SINGAPORE EXPO (HALL 1) SINGAPORE 486150","postal":"486150","year_completed":"1999","building_type":"Commercial Building","main_building_function":"Retail","gross_floor_area":"170,288"}},{"type":"Feature","geometry":{"type":"Point","coordinates":[103.957914543249,1.33264409019094]},"properties":{"searchval":"SINGAPORE EXPO (HALL 2)","blk_no":"1","road_name":"EXPO DRIVE","building":"SINGAPORE EXPO (HALL 2)","address":"1 EXPO DRIVE SINGAPORE EXPO (HALL 2) SINGAPORE 486150","postal":"486150","year_completed":"1999","building_type":"Commercial Building","main_building_function":"Retail","gross_floor_area":"170,288"}},{"type":"Feature","geometry":{"type":"Point","coordinates":[103.959013631862,1.3331223482757]},"properties":{"searchval":"SINGAPORE EXPO (HALL 3)","blk_no":"1","road_name":"EXPO DRIVE","building":"SINGAPORE EXPO (HALL 3)","address":"1 EXPO DRIVE SINGAPORE EXPO (HALL 3) SINGAPORE 486150","postal":"486150","year_completed":"1999","building_type":"Commercial Building","main_building_function":"Retail","gross_floor_area":"170,288"}},{"type":"Feature","geometry":{"type":"Point","coordinates":[103.959761073554,1.3336671620387]},"properties":{"searchval":"SINGAPORE EXPO (HALL 4)","blk_no":"1","road_name":"EXPO DRIVE","building":"SINGAPORE EXPO (HALL 4)","address":"1 EXPO DRIVE SINGAPORE EXPO (HALL 4) SINGAPORE 486150","postal":"486150","year_completed":"1999","building_type":"Commercial Building","main_building_function":"Retail","gross_floor_area":"170,288"}},{"type":"Feature","geometry":{"type":"Point","coordinates":[103.960390970213,1.33433094869285]},"properties":{"searchval":"SINGAPORE EXPO (HALL 5)","blk_no":"1","road_name":"EXPO DRIVE","building":"SINGAPORE EXPO (HALL 5)","address":"1 EXPO DRIVE SINGAPORE EXPO (HALL 5) SINGAPORE 486150","postal":"486150","year_completed":"1999","building_type":"Commercial Building","main_building_function":"Retail","gross_floor_area":"170,288"}},{"type":"Feature","geometry":{"type":"Point","coordinates":[103.960860375827,1.33507386856902]},"properties":{"searchval":"SINGAPORE EXPO (HALL 6)","blk_no":"1","road_name":"EXPO DRIVE","building":"SINGAPORE EXPO (HALL 6)","address":"1 EXPO DRIVE SINGAPORE EXPO (HALL 6) SINGAPORE 486150","postal":"486150","year_completed":"1999","building_type":"Commercial Building","main_building_function":"Retail","gross_floor_area":"170,288"}},{"type":"Feature","geometry":{"type":"Point","coordinates":[103.956982682371,1.33337376863698]},"properties":{"searchval":"SINGAPORE EXPO (MAX ATRIA)","blk_no":"1","road_name":"EXPO DRIVE","building":"SINGAPORE EXPO (MAX ATRIA)","address":"1 EXPO DRIVE SINGAPORE EXPO (MAX ATRIA) SINGAPORE 486150","postal":"486150","year_completed":"1999","building_type":"Commercial Building","main_building_function":"Retail","gross_floor_area":"170,288"}},{"type":"Feature","geometry":{"type":"Point","coordinates":[103.832957478209,1.30502562565776]},"properties":{"searchval":"SINGAPORE MARRIOTT TANG PLAZA HOTEL","blk_no":"320","road_name":"ORCHARD ROAD","building":"SINGAPORE MARRIOTT TANG PLAZA HOTEL","address":"320 ORCHARD ROAD SINGAPORE MARRIOTT TANG PLAZA HOTEL SINGAPORE 238865","postal":"238865","year_completed":"1982","building_type":"Commercial Building","main_building_function":"Hotel","gross_floor_area":"76,504"}},{"type":"Feature","geometry":{"type":"Point","coordinates":[103.846407081525,1.33669904090409]},"properties":{"searchval":"SINGAPORE FEDERATION OF CHINESE CLAN ASSOCIATION BUILDING","blk_no":"397","road_name":"LORONG 2 TOA PAYOH","building":"SINGAPORE FEDERATION OF CHINESE CLAN ASSOCIATION BUILDING","address":"397 LORONG 2 TOA PAYOH SINGAPORE FEDERATION OF CHINESE CLAN ASSOCIATION BUILDING SINGAPORE 319639","postal":"319639","year_completed":"1997","building_type":"Commercial Building","main_building_function":"Office","gross_floor_area":"4,179"}},{"type":"Feature","geometry":{"type":"Point","coordinates":[103.84206291128,1.31983157336592]},"properties":{"searchval":"SINGAPORE CUSTOMS (SC)","blk_no":"55","road_name":"NEWTON ROAD","building":"SINGAPORE CUSTOMS (SC)","address":"55 NEWTON ROAD SINGAPORE CUSTOMS (SC) SINGAPORE 307987","postal":"307987","year_completed":"1996","building_type":"Commercial Building","main_building_function":"Office","gross_floor_area":"86,572"}},{"type":"Feature","geometry":{"type":"Point","coordinates":[103.842190476981,1.31968401251479]},"properties":{"searchval":"SINGAPORE CUSTOMS ACADEMY","blk_no":"55","road_name":"NEWTON ROAD","building":"SINGAPORE CUSTOMS ACADEMY","address":"55 NEWTON ROAD SINGAPORE CUSTOMS ACADEMY SINGAPORE 307987","postal":"307987","year_completed":"1996","building_type":"Commercial Building","main_building_function":"Office","gross_floor_area":"86,572"}},{"type":"Feature","geometry":{"type":"Point","coordinates":[103.842058715827,1.31960051567575]},"properties":{"searchval":"TAX ACADEMY OF SINGAPORE","blk_no":"55","road_name":"NEWTON ROAD","building":"TAX ACADEMY OF SINGAPORE","address":"55 NEWTON ROAD TAX ACADEMY OF SINGAPORE SINGAPORE 307987","postal":"307987","year_completed":"1996","building_type":"Commercial Building","main_building_function":"Office","gross_floor_area":"86,572"}},{"type":"Feature","geometry":{"type":"Point","coordinates":[103.836657784125,1.28825972041875]},"properties":{"searchval":"COPTHORNE KING'S HOTEL SINGAPORE","blk_no":"403","road_name":"HAVELOCK ROAD","building":"COPTHORNE KING'S HOTEL SINGAPORE","address":"403 HAVELOCK ROAD COPTHORNE KING'S HOTEL SINGAPORE SINGAPORE 169632","postal":"169632","year_completed":"1970","building_type":"Commercial Building","main_building_function":"Hotel","gross_floor_area":"17,598"}},{"type":"Feature","geometry":{"type":"Point","coordinates":[103.827569393578,1.24589687601798]},"properties":{"searchval":"SOFITEL SINGAPORE SENTOSA","blk_no":"2","road_name":"BUKIT MANIS ROAD","building":"SOFITEL SINGAPORE SENTOSA","address":"2 BUKIT MANIS ROAD SOFITEL SINGAPORE SENTOSA SINGAPORE 099891","postal":"099891","year_completed":"1990","building_type":"Commercial Building","main_building_function":"Hotel","gross_floor_area":"13,752"}},{"type":"Feature","geometry":{"type":"Point","coordinates":[103.851559731294,1.2820837651092]},"properties":{"searchval":"ASCOTT SINGAPORE RAFFLES PLACE","blk_no":"2","road_name":"FINLAYSON GREEN","building":"ASCOTT SINGAPORE RAFFLES PLACE","address":"2 FINLAYSON GREEN ASCOTT SINGAPORE RAFFLES PLACE SINGAPORE 049247","postal":"049247","year_completed":"2008","building_type":"Commercial Building","main_building_function":"Hotel","gross_floor_area":"16,105"}},{"type":"Feature","geometry":{"type":"Point","coordinates":[103.829314888722,1.30587902361324]},"properties":{"searchval":"VOCO ORCHARD SINGAPORE","blk_no":"581","road_name":"ORCHARD ROAD","building":"VOCO ORCHARD SINGAPORE","address":"581 ORCHARD ROAD VOCO ORCHARD SINGAPORE SINGAPORE 238883","postal":"238883","year_completed":"1969","building_type":"Commercial Building","main_building_function":"Mixed Development","gross_floor_area":"38,986"}},{"type":"Feature","geometry":{"type":"Point","coordinates":[103.836202022273,1.30310629705925]},"properties":{"searchval":"PULLMAN SINGAPORE ORCHARD","blk_no":"270","road_name":"ORCHARD ROAD","building":"PULLMAN SINGAPORE ORCHARD","address":"270 ORCHARD ROAD PULLMAN SINGAPORE ORCHARD SINGAPORE 238857","postal":"238857","year_completed":"2010","building_type":"Commercial Building","main_building_function":"Hotel","gross_floor_area":"22,606"}},{"type":"Feature","geometry":{"type":"Point","coordinates":[103.823912359581,1.30427053823352]},"properties":{"searchval":"JEN SINGAPORE TANGLIN BY SHANGRI-LA","blk_no":"1A","road_name":"CUSCADEN ROAD","building":"JEN SINGAPORE TANGLIN BY SHANGRI-LA","address":"1A CUSCADEN ROAD JEN SINGAPORE TANGLIN BY SHANGRI-LA SINGAPORE 249716","postal":"249716","year_completed":"1995","building_type":"Commercial Building","main_building_function":"Hotel","gross_floor_area":"26,385"}},{"type":"Feature","geometry":{"type":"Point","coordinates":[103.836680361524,1.30322796530206]},"properties":{"searchval":"HOLIDAY INN EXPRESS SINGAPORE ORCHARD ROAD","blk_no":"20","road_name":"BIDEFORD ROAD","building":"HOLIDAY INN EXPRESS SINGAPORE ORCHARD ROAD","address":"20 BIDEFORD ROAD HOLIDAY INN EXPRESS SINGAPORE ORCHARD ROAD SINGAPORE 229921","postal":"229921","year_completed":"2013","building_type":"Commercial Building","main_building_function":"Hotel","gross_floor_area":"7,221"}},{"type":"Feature","geometry":{"type":"Point","coordinates":[103.846490872113,1.32702991607724]},"properties":{"searchval":"RAMADA SINGAPORE AT ZHONGSHAN PARK","blk_no":"16","road_name":"AH HOOD ROAD","building":"RAMADA SINGAPORE AT ZHONGSHAN PARK","address":"16 AH HOOD ROAD RAMADA SINGAPORE AT ZHONGSHAN PARK SINGAPORE 329982","postal":"329982","year_completed":"2012","building_type":"Commercial Building","main_building_function":"Hotel","gross_floor_area":"26,387"}},{"type":"Feature","geometry":{"type":"Point","coordinates":[103.881351199345,1.30751903141127]},"properties":{"searchval":"SINGAPORE CRICKET ASSOCIATION","blk_no":"229","road_name":"MOUNTBATTEN ROAD","building":"SINGAPORE CRICKET ASSOCIATION","address":"229 MOUNTBATTEN ROAD SINGAPORE CRICKET ASSOCIATION SINGAPORE 398007","postal":"398007","year_completed":"2009","building_type":"Commercial Building","main_building_function":"Office","gross_floor_area":"19,916"}},{"type":"Feature","geometry":{"type":"Point","coordinates":[103.89156433391,1.34652779381724]},"properties":{"searchval":"SINGAPORE GIRL'S HOME","blk_no":"1","road_name":"DEFU AVENUE 1","building":"SINGAPORE GIRL'S HOME","address":"1 DEFU AVENUE 1 SINGAPORE GIRL'S HOME SINGAPORE 539540","postal":"539540","year_completed":"2004","building_type":"Commercial Building","main_building_function":"Office","gross_floor_area":"19,516"}},{"type":"Feature","geometry":{"type":"Point","coordinates":[103.700829921054,1.35531455743399]},"properties":{"searchval":"SINGAPORE BOY'S HOME","blk_no":"3","road_name":"BULIM DRIVE","building":"SINGAPORE BOY'S HOME","address":"3 BULIM DRIVE SINGAPORE BOY'S HOME SINGAPORE 648172","postal":"648172","year_completed":"2020","building_type":"Commercial Building","main_building_function":"Office","gross_floor_area":"18,008"}},{"type":"Feature","geometry":{"type":"Point","coordinates":[103.699566545707,1.35467549988407]},"properties":{"searchval":"SINGAPORE BOYS' HOME","blk_no":"3","road_name":"BULIM DRIVE","building":"SINGAPORE BOYS' HOME","address":"3 BULIM DRIVE SINGAPORE BOYS' HOME SINGAPORE 648172","postal":"648172","year_completed":"2020","building_type":"Commercial Building","main_building_function":"Office","gross_floor_area":"18,008"}},{"type":"Feature","geometry":{"type":"Point","coordinates":[103.842228547508,1.30061922274709]},"properties":{"searchval":"CONCORDE HOTEL SINGAPORE","blk_no":"100","road_name":"ORCHARD ROAD","building":"CONCORDE HOTEL SINGAPORE","address":"100 ORCHARD ROAD CONCORDE HOTEL SINGAPORE SINGAPORE 238840","postal":"238840","year_completed":"1984","building_type":"Commercial Building","main_building_function":"Mixed Development","gross_floor_area":"62,543"}},{"type":"Feature","geometry":{"type":"Point","coordinates":[103.848267915547,1.3325746127759]},"properties":{"searchval":"CENTRAL SINGAPORE COMMUNITY DEVELOPMENT COUNCIL","blk_no":"490","road_name":"LORONG 6 TOA PAYOH","building":"CENTRAL SINGAPORE COMMUNITY DEVELOPMENT COUNCIL","address":"490 LORONG 6 TOA PAYOH CENTRAL SINGAPORE COMMUNITY DEVELOPMENT COUNCIL SINGAPORE 310490","postal":"310490","year_completed":"2000","building_type":"Commercial Building","main_building_function":"Office","gross_floor_area":"187,345"}},{"type":"Feature","geometry":{"type":"Point","coordinates":[103.847854628243,1.27812790985944]},"properties":{"searchval":"SINGAPORE BUSINESS FEDERATION CENTER (SBF CENTER)","blk_no":"160","road_name":"ROBINSON ROAD","building":"SINGAPORE BUSINESS FEDERATION CENTER (SBF CENTER)","address":"160 ROBINSON ROAD SINGAPORE BUSINESS FEDERATION CENTER (SBF CENTER) SINGAPORE 068914","postal":"068914","year_completed":"2017","building_type":"Commercial Building","main_building_function":"Office","gross_floor_area":"28,189"}},{"type":"Feature","geometry":{"type":"Point","coordinates":[103.853474024625,1.29866019801715]},"properties":{"searchval":"UNIVERSITY OF THE ARTS SINGAPORE","blk_no":"111","road_name":"MIDDLE ROAD","building":"UNIVERSITY OF THE ARTS SINGAPORE","address":"111 MIDDLE ROAD UNIVERSITY OF THE ARTS SINGAPORE SINGAPORE 188969","postal":"188969","year_completed":"1900","building_type":"Commercial Building","main_building_function":"Office","gross_floor_area":"7,948"}},{"type":"Feature","geometry":{"type":"Point","coordinates":[103.852349715237,1.34293506924731]},"properties":{"searchval":"SINGAPORE ISLAMIC HUB","blk_no":"273","road_name":"BRADDELL ROAD","building":"SINGAPORE ISLAMIC HUB","address":"273 BRADDELL ROAD SINGAPORE ISLAMIC HUB SINGAPORE 579702","postal":"579702","year_completed":"2009","building_type":"Commercial Building","main_building_function":"Office","gross_floor_area":"20,211"}},{"type":"Feature","geometry":{"type":"Point","coordinates":[103.851274599853,1.30117342723628]},"properties":{"searchval":"SINGAPORE POOLS BUILDING","blk_no":"210","road_name":"MIDDLE ROAD","building":"SINGAPORE POOLS BUILDING","address":"210 MIDDLE ROAD SINGAPORE POOLS BUILDING SINGAPORE 188994","postal":"188994","year_completed":"2013","building_type":"Commercial Building","main_building_function":"Office","gross_floor_area":"13,121"}},{"type":"Feature","geometry":{"type":"Point","coordinates":[103.840007592937,1.27962668610529]},"properties":{"searchval":"DORSETT SINGAPORE","blk_no":"333","road_name":"NEW BRIDGE ROAD","building":"DORSETT SINGAPORE","address":"333 NEW BRIDGE ROAD DORSETT SINGAPORE SINGAPORE 088765","postal":"088765","year_completed":"2013","building_type":"Commercial Building","main_building_function":"Hotel","gross_floor_area":"11,584"}},{"type":"Feature","geometry":{"type":"Point","coordinates":[103.836462149219,1.31195053469522]},"properties":{"searchval":"SHERATON TOWERS SINGAPORE HOTEL","blk_no":"39","road_name":"SCOTTS ROAD","building":"SHERATON TOWERS SINGAPORE HOTEL","address":"39 SCOTTS ROAD SHERATON TOWERS SINGAPORE HOTEL SINGAPORE 228230","postal":"228230","year_completed":"1985","building_type":"Commercial Building","main_building_function":"Hotel","gross_floor_area":"31,224"}},{"type":"Feature","geometry":{"type":"Point","coordinates":[103.82028484165,1.25498909397858]},"properties":{"searchval":"ADVENTURE COVE WATERPARK SINGAPORE","blk_no":"8","road_name":"SENTOSA GATEWAY","building":"ADVENTURE COVE WATERPARK SINGAPORE","address":"8 SENTOSA GATEWAY ADVENTURE COVE WATERPARK SINGAPORE SINGAPORE 098269","postal":"098269","year_completed":"2010","building_type":"Commercial Building","main_building_function":"Retail","gross_floor_area":"343,000"}},{"type":"Feature","geometry":{"type":"Point","coordinates":[103.820219411086,1.25493343878686]},"properties":{"searchval":"RESORTS WORLD SENTOSA SINGAPORE","blk_no":"8","road_name":"SENTOSA GATEWAY","building":"RESORTS WORLD SENTOSA SINGAPORE","address":"8 SENTOSA GATEWAY RESORTS WORLD SENTOSA SINGAPORE SINGAPORE 098269","postal":"098269","year_completed":"2010","building_type":"Commercial Building","main_building_function":"Retail","gross_floor_area":"343,000"}},{"type":"Feature","geometry":{"type":"Point","coordinates":[103.820263350055,1.25509241496921]},"properties":{"searchval":"UNIVERSAL STUDIOS SINGAPORE THEME PARK","blk_no":"8","road_name":"SENTOSA GATEWAY","building":"UNIVERSAL STUDIOS SINGAPORE THEME PARK","address":"8 SENTOSA GATEWAY UNIVERSAL STUDIOS SINGAPORE THEME PARK SINGAPORE 098269","postal":"098269","year_completed":"2010","building_type":"Commercial Building","main_building_function":"Retail","gross_floor_area":"343,000"}},{"type":"Feature","geometry":{"type":"Point","coordinates":[103.860829893192,1.29971949507987]},"properties":{"searchval":"PARKROYAL ON BEACH ROAD, SINGAPORE","blk_no":"7500A","road_name":"BEACH ROAD","building":"PARKROYAL ON BEACH ROAD, SINGAPORE","address":"7500A BEACH ROAD PARKROYAL ON BEACH ROAD, SINGAPORE SINGAPORE 199591","postal":"199591","year_completed":"1968","building_type":"Commercial Building","main_building_function":"Mixed Development","gross_floor_area":"72,925"}},{"type":"Feature","geometry":{"type":"Point","coordinates":[103.853118508952,1.29960950187876]},"properties":{"searchval":"MERCURE SINGAPORE BUGIS","blk_no":"122","road_name":"MIDDLE ROAD","building":"MERCURE SINGAPORE BUGIS","address":"122 MIDDLE ROAD MERCURE SINGAPORE BUGIS SINGAPORE 188973","postal":"188973","year_completed":"2018","building_type":"Commercial Building","main_building_function":"Hotel","gross_floor_area":"11,899"}},{"type":"Feature","geometry":{"type":"Point","coordinates":[103.893120901028,1.33427294506964]},"properties":{"searchval":"HQ SINGAPORE CIVIL DEFENCE FORCE","blk_no":"91","road_name":"UBI AVENUE 4","building":"HQ SINGAPORE CIVIL DEFENCE FORCE","address":"91 UBI AVENUE 4 HQ SINGAPORE CIVIL DEFENCE FORCE SINGAPORE 408827","postal":"408827","year_completed":"2002","building_type":"Commercial Building","main_building_function":"Office","gross_floor_area":"49,327"}},{"type":"Feature","geometry":{"type":"Point","coordinates":[103.963712616735,1.33410449991775]},"properties":{"searchval":"DORSETT CHANGI CITY, SINGAPORE","blk_no":"3","road_name":"CHANGI BUSINESS PARK CENTRAL 1","building":"DORSETT CHANGI CITY, SINGAPORE","address":"3 CHANGI BUSINESS PARK CENTRAL 1 DORSETT CHANGI CITY, SINGAPORE SINGAPORE 486037","postal":"486037","year_completed":"2012","building_type":"Commercial Building","main_building_function":"Hotel","gross_floor_area":"18,975"}},{"type":"Feature","geometry":{"type":"Point","coordinates":[103.848596793501,1.27731975064011]},"properties":{"searchval":"DAO BY DORSETT AMTD SINGAPORE","blk_no":"6","road_name":"SHENTON WAY","building":"DAO BY DORSETT AMTD SINGAPORE","address":"6 SHENTON WAY DAO BY DORSETT AMTD SINGAPORE SINGAPORE 068809","postal":"068809","year_completed":"1974","building_type":"Commercial Building","main_building_function":"Office","gross_floor_area":"116,055"}},{"type":"Feature","geometry":{"type":"Point","coordinates":[103.850957393439,1.27836304614879]},"properties":{"searchval":"THE WESTIN SINGAPORE","blk_no":"12","road_name":"MARINA VIEW","building":"THE WESTIN SINGAPORE","address":"12 MARINA VIEW THE WESTIN SINGAPORE SINGAPORE 018961","postal":"018961","year_completed":"2013","building_type":"Commercial Building","main_building_function":"Office","gross_floor_area":"99,576"}},{"type":"Feature","geometry":{"type":"Point","coordinates":[103.836160045113,1.28769285607795]},"properties":{"searchval":"FURAMA RIVERFRONT SINGAPORE","blk_no":"405","road_name":"HAVELOCK ROAD","building":"FURAMA RIVERFRONT SINGAPORE","address":"405 HAVELOCK ROAD FURAMA RIVERFRONT SINGAPORE SINGAPORE 169633","postal":"169633","year_completed":"1973","building_type":"Commercial Building","main_building_function":"Hotel","gross_floor_area":"37,570"}},{"type":"Feature","geometry":{"type":"Point","coordinates":[103.845209377351,1.2795512783646]},"properties":{"searchval":"COMPETITION AND CONSUMER COMMISSION OF SINGAPORE (CCS)","blk_no":"45","road_name":"MAXWELL ROAD","building":"COMPETITION AND CONSUMER COMMISSION OF SINGAPORE (CCS)","address":"45 MAXWELL ROAD COMPETITION AND CONSUMER COMMISSION OF SINGAPORE (CCS) SINGAPORE 069118","postal":"069118","year_completed":"1998","building_type":"Commercial Building","main_building_function":"Office","gross_floor_area":"53,825"}},{"type":"Feature","geometry":{"type":"Point","coordinates":[103.845227197426,1.27969177422242]},"properties":{"searchval":"SINGAPORE CITY GALLERY","blk_no":"45","road_name":"MAXWELL ROAD","building":"SINGAPORE CITY GALLERY","address":"45 MAXWELL ROAD SINGAPORE CITY GALLERY SINGAPORE 069118","postal":"069118","year_completed":"1998","building_type":"Commercial Building","main_building_function":"Office","gross_floor_area":"53,825"}},{"type":"Feature","geometry":{"type":"Point","coordinates":[103.791257019111,1.2956063657836]},"properties":{"searchval":"SEAGATE SINGAPORE DESIGN CENTER - THE SHUGART","blk_no":"26","road_name":"AYER RAJAH CRESCENT","building":"SEAGATE SINGAPORE DESIGN CENTER - THE SHUGART","address":"26 AYER RAJAH CRESCENT SEAGATE SINGAPORE DESIGN CENTER - THE SHUGART SINGAPORE 139944","postal":"139944","year_completed":"2014","building_type":"Commercial Building","main_building_function":"Office","gross_floor_area":"40,880"}},{"type":"Feature","geometry":{"type":"Point","coordinates":[103.81524458873,1.29602159163943]},"properties":{"searchval":"INSTITUTE FOR ADULT LEARNING SINGAPORE","blk_no":"1","road_name":"KAY SIANG ROAD","building":"INSTITUTE FOR ADULT LEARNING SINGAPORE","address":"1 KAY SIANG ROAD INSTITUTE FOR ADULT LEARNING SINGAPORE SINGAPORE 248922","postal":"248922","year_completed":"1960","building_type":"Commercial Building","main_building_function":"Office","gross_floor_area":"15,091"}},{"type":"Feature","geometry":{"type":"Point","coordinates":[103.815637079779,1.29619568641922]},"properties":{"searchval":"SINGAPORE ENVIRONMENT COUNCIL","blk_no":"1","road_name":"KAY SIANG ROAD","building":"SINGAPORE ENVIRONMENT COUNCIL","address":"1 KAY SIANG ROAD SINGAPORE ENVIRONMENT COUNCIL SINGAPORE 248922","postal":"248922","year_completed":"1960","building_type":"Commercial Building","main_building_function":"Office","gross_floor_area":"15,091"}},{"type":"Feature","geometry":{"type":"Point","coordinates":[103.815392879675,1.29619963985808]},"properties":{"searchval":"SINGAPORE ENVIRONMENT INSTITUTE","blk_no":"1","road_name":"KAY SIANG ROAD","building":"SINGAPORE ENVIRONMENT INSTITUTE","address":"1 KAY SIANG ROAD SINGAPORE ENVIRONMENT INSTITUTE SINGAPORE 248922","postal":"248922","year_completed":"1960","building_type":"Commercial Building","main_building_function":"Office","gross_floor_area":"15,091"}},{"type":"Feature","geometry":{"type":"Point","coordinates":[103.815841670795,1.29631659023507]},"properties":{"searchval":"YOG GALLERY @ SINGAPORE SPORTS MUSEUM","blk_no":"1","road_name":"KAY SIANG ROAD","building":"YOG GALLERY @ SINGAPORE SPORTS MUSEUM","address":"1 KAY SIANG ROAD YOG GALLERY @ SINGAPORE SPORTS MUSEUM SINGAPORE 248922","postal":"248922","year_completed":"1960","building_type":"Commercial Building","main_building_function":"Office","gross_floor_area":"15,091"}},{"type":"Feature","geometry":{"type":"Point","coordinates":[103.851569286784,1.2935414355709]},"properties":{"searchval":"CAPITOL BUILDING SINGAPORE","blk_no":"15","road_name":"STAMFORD ROAD","building":"CAPITOL BUILDING SINGAPORE","address":"15 STAMFORD ROAD CAPITOL BUILDING SINGAPORE SINGAPORE 178906","postal":"178906","year_completed":"2015","building_type":"Commercial Building","main_building_function":"Hotel","gross_floor_area":"12,621"}},{"type":"Feature","geometry":{"type":"Point","coordinates":[103.851299277575,1.29390281870928]},"properties":{"searchval":"THE CAPITOL KEMPINSKI HOTEL SINGAPORE","blk_no":"15","road_name":"STAMFORD ROAD","building":"THE CAPITOL KEMPINSKI HOTEL SINGAPORE","address":"15 STAMFORD ROAD THE CAPITOL KEMPINSKI HOTEL SINGAPORE SINGAPORE 178906","postal":"178906","year_completed":"2015","building_type":"Commercial Building","main_building_function":"Hotel","gross_floor_area":"12,621"}},{"type":"Feature","geometry":{"type":"Point","coordinates":[103.849366883599,1.30208598515708]},"properties":{"searchval":"CITADINES MOUNT SOPHIA SINGAPORE","blk_no":"8","road_name":"WILKIE ROAD","building":"CITADINES MOUNT SOPHIA SINGAPORE","address":"8 WILKIE ROAD CITADINES MOUNT SOPHIA SINGAPORE SINGAPORE 228095","postal":"228095","year_completed":"2008","building_type":"Commercial Building","main_building_function":"Office","gross_floor_area":"29,812"}},{"type":"Feature","geometry":{"type":"Point","coordinates":[103.838613292488,1.29004703709958]},"properties":{"searchval":"INTERCONTINENTAL SINGAPORE ROBERTSON QUAY","blk_no":"1","road_name":"NANSON ROAD","building":"INTERCONTINENTAL SINGAPORE ROBERTSON QUAY","address":"1 NANSON ROAD INTERCONTINENTAL SINGAPORE ROBERTSON QUAY SINGAPORE 238909","postal":"238909","year_completed":"2017","building_type":"Commercial Building","main_building_function":"Hotel","gross_floor_area":"14,284"}},{"type":"Feature","geometry":{"type":"Point","coordinates":[103.841101583104,1.30227912634395]},"properties":{"searchval":"HOLIDAY INN SINGAPORE ORCHARD CITY CENTRE","blk_no":"11","road_name":"CAVENAGH ROAD","building":"HOLIDAY INN SINGAPORE ORCHARD CITY CENTRE","address":"11 CAVENAGH ROAD HOLIDAY INN SINGAPORE ORCHARD CITY CENTRE SINGAPORE 229616","postal":"229616","year_completed":"1985","building_type":"Commercial Building","main_building_function":"Hotel","gross_floor_area":"5,809"}},{"type":"Feature","geometry":{"type":"Point","coordinates":[103.826353319978,1.31646694466487]},"properties":{"searchval":"METROPOLITAN YMCA SINGAPORE","blk_no":"60","road_name":"STEVENS ROAD","building":"METROPOLITAN YMCA SINGAPORE","address":"60 STEVENS ROAD METROPOLITAN YMCA SINGAPORE SINGAPORE 257854","postal":"257854","year_completed":"1980","building_type":"Commercial Building","main_building_function":"Hotel","gross_floor_area":"8,211"}},{"type":"Feature","geometry":{"type":"Point","coordinates":[103.82860636443,1.31386945443377]},"properties":{"searchval":"MERCURE SINGAPORE ON STEVENS","blk_no":"28","road_name":"STEVENS ROAD","building":"MERCURE SINGAPORE ON STEVENS","address":"28 STEVENS ROAD MERCURE SINGAPORE ON STEVENS SINGAPORE 257878","postal":"257878","year_completed":"2017","building_type":"Commercial Building","main_building_function":"Hotel","gross_floor_area":"29,553"}},{"type":"Feature","geometry":{"type":"Point","coordinates":[103.845692302876,1.2882180283587]},"properties":{"searchval":"PARADOX SINGAPORE MERCHANT COURT AT CLARKE QUAY","blk_no":"20","road_name":"MERCHANT ROAD","building":"PARADOX SINGAPORE MERCHANT COURT AT CLARKE QUAY","address":"20 MERCHANT ROAD PARADOX SINGAPORE MERCHANT COURT AT CLARKE QUAY SINGAPORE 058281","postal":"058281","year_completed":"1997","building_type":"Commercial Building","main_building_function":"Hotel","gross_floor_area":"38,054"}},{"type":"Feature","geometry":{"type":"Point","coordinates":[103.842698514086,1.24615202701928]},"properties":{"searchval":"W SINGAPORE SENTOSA COVE HOTEL","blk_no":"21","road_name":"OCEAN WAY","building":"W SINGAPORE SENTOSA COVE HOTEL","address":"21 OCEAN WAY W SINGAPORE SENTOSA COVE HOTEL SINGAPORE 098374","postal":"098374","year_completed":"2012","building_type":"Commercial Building","main_building_function":"Hotel","gross_floor_area":"23,800"}},{"type":"Feature","geometry":{"type":"Point","coordinates":[103.851438822181,1.30512222179237]},"properties":{"searchval":"CITADINES ROCHOR SINGAPORE","blk_no":"2","road_name":"SERANGOON ROAD","building":"CITADINES ROCHOR SINGAPORE","address":"2 SERANGOON ROAD CITADINES ROCHOR SINGAPORE SINGAPORE 218227","postal":"218227","year_completed":"2019","building_type":"Commercial Building","main_building_function":"Mixed Development","gross_floor_area":"22,162"}},{"type":"Feature","geometry":{"type":"Point","coordinates":[103.838561595518,1.29906593384911]},"properties":{"searchval":"SINGAPORE TELECOM","blk_no":"31","road_name":"EXETER ROAD","building":"SINGAPORE TELECOM","address":"31 EXETER ROAD SINGAPORE TELECOM SINGAPORE 239732","postal":"239732","year_completed":"1981","building_type":"Commercial Building","main_building_function":"Office","gross_floor_area":"104,962"}},{"type":"Feature","geometry":{"type":"Point","coordinates":[103.843698494444,1.27595846441911]},"properties":{"searchval":"CARLTON CITY HOTEL SINGAPORE","blk_no":"1","road_name":"GOPENG STREET","building":"CARLTON CITY HOTEL SINGAPORE","address":"1 GOPENG STREET CARLTON CITY HOTEL SINGAPORE SINGAPORE 078862","postal":"078862","year_completed":"2013","building_type":"Commercial Building","main_building_function":"Hotel","gross_floor_area":"20,331"}},{"type":"Feature","geometry":{"type":"Point","coordinates":[103.850356180598,1.29937379615615]},"properties":{"searchval":"SOMERSET BENCOOLEN SINGAPORE","blk_no":"51","road_name":"BENCOOLEN STREET","building":"SOMERSET BENCOOLEN SINGAPORE","address":"51 BENCOOLEN STREET SOMERSET BENCOOLEN SINGAPORE SINGAPORE 189630","postal":"189630","year_completed":"2004","building_type":"Commercial Building","main_building_function":"Hotel","gross_floor_area":"9,336"}},{"type":"Feature","geometry":{"type":"Point","coordinates":[103.826053512399,1.30566141166044]},"properties":{"searchval":"SAINT REGIS HOTEL SINGAPORE","blk_no":"29","road_name":"TANGLIN ROAD","building":"SAINT REGIS HOTEL SINGAPORE","address":"29 TANGLIN ROAD SAINT REGIS HOTEL SINGAPORE SINGAPORE 247911","postal":"247911","year_completed":"2007","building_type":"Commercial Building","main_building_function":"Hotel","gross_floor_area":"30,850"}},{"type":"Feature","geometry":{"type":"Point","coordinates":[103.837220918442,1.29086700056319]},"properties":{"searchval":"M SOCIAL SINGAPORE","blk_no":"90","road_name":"ROBERTSON QUAY","building":"M SOCIAL SINGAPORE","address":"90 ROBERTSON QUAY M SOCIAL SINGAPORE SINGAPORE 238259","postal":"238259","year_completed":"2016","building_type":"Commercial Building","main_building_function":"Hotel","gross_floor_area":"7,999"}},{"type":"Feature","geometry":{"type":"Point","coordinates":[103.879538027824,1.33172355808285]},"properties":{"searchval":"IBIS STYLES SINGAPORE ON MACPHERSON","blk_no":"401","road_name":"MACPHERSON ROAD","building":"IBIS STYLES SINGAPORE ON MACPHERSON","address":"401 MACPHERSON ROAD IBIS STYLES SINGAPORE ON MACPHERSON SINGAPORE 368125","postal":"368125","year_completed":"2016","building_type":"Commercial Building","main_building_function":"Mixed Development","gross_floor_area":"13,284"}},{"type":"Feature","geometry":{"type":"Point","coordinates":[103.839325098352,1.30048912114759]},"properties":{"searchval":"JEN SINGAPORE ORCHARDGATEWAY BY SHANGRI-LA","blk_no":"277","road_name":"ORCHARD ROAD","building":"JEN SINGAPORE ORCHARDGATEWAY BY SHANGRI-LA","address":"277 ORCHARD ROAD JEN SINGAPORE ORCHARDGATEWAY BY SHANGRI-LA SINGAPORE 238858","postal":"238858","year_completed":"2014","building_type":"Commercial Building","main_building_function":"Mixed Development","gross_floor_area":"48,324"}},{"type":"Feature","geometry":{"type":"Point","coordinates":[103.861554245252,1.30397881313463]},"properties":{"searchval":"HOPE CHURCH SINGAPORE","blk_no":"200","road_name":"JALAN SULTAN","building":"HOPE CHURCH SINGAPORE","address":"200 JALAN SULTAN HOPE CHURCH SINGAPORE SINGAPORE 199018","postal":"199018","year_completed":"1977","building_type":"Commercial Building","main_building_function":"Retail","gross_floor_area":"47,750"}}]}