{
"type": "FeatureCollection",
"name": "misc_energy_data",
"features": [
{ "type": "Feature", "properties": { "searchval": "8 SIMEI STREET 3, SINGAPORE 529895", "blk_no": "8", "road_name": "SIMEI STREET 3", "building": "SAINT ANDREW'S COMMUNITY CHAPEL", "building_name": "SAINT ANDREW'S COMMUNITY HOSPITAL", "address": "8 SIMEI STREET 3 SAINT ANDREW'S COMMUNITY CHAPEL SINGAPORE 529895", "postal": "529895", "building_type": "Community Hospital", "gross_floor_area": "14,122" }, "geometry": { "type": "Point", "coordinates": [ 103.948866250384995, 1.34173365597121 ] } },
{ "type": "Feature", "properties": { "searchval": "8 SIMEI STREET 3, SINGAPORE 529895", "blk_no": "8", "road_name": "SIMEI STREET 3", "building": "SAINT ANDREW'S COMMUNITY HOSPITAL", "building_name": "SAINT ANDREW'S COMMUNITY HOSPITAL", "address": "8 SIMEI STREET 3 SAINT ANDREW'S COMMUNITY HOSPITAL SINGAPORE 529895", "postal": "529895", "building_type": "Community Hospital", "gross_floor_area": "14,122" }, "geometry": { "type": "Point", "coordinates": [ 103.948799458078, 1.34168650601146 ] } },
{ "type": "Feature", "properties": { "searchval": "8 SIMEI STREET 3, SINGAPORE 529895", "blk_no": "8", "road_name": "SIMEI STREET 3", "building": "SAINT ANDREW'S MISSION HOSPITAL", "building_name": "SAINT ANDREW'S COMMUNITY HOSPITAL", "address": "8 SIMEI STREET 3 SAINT ANDREW'S MISSION HOSPITAL SINGAPORE 529895", "postal": "529895", "building_type": "Community Hospital", "gross_floor_area": "14,122" }, "geometry": { "type": "Point", "coordinates": [ 103.948759433215997, 1.34177634002278 ] } },
{ "type": "Feature", "properties": { "searchval": "10 LORONG 9 GEYLANG, SINGAPORE 388758", "blk_no": "10", "road_name": "LORONG 9 GEYLANG", "building": "INSTITUTE OF CHINESE MEDICAL STUDIES", "building_name": null, "address": "10 LORONG 9 GEYLANG INSTITUTE OF CHINESE MEDICAL STUDIES SINGAPORE 388758", "postal": "388758", "building_type": "Private Clinic", "gross_floor_area": "964" }, "geometry": { "type": "Point", "coordinates": [ 103.876587421907999, 1.31271705787166 ] } },
{ "type": "Feature", "properties": { "searchval": "10 LORONG 9 GEYLANG, SINGAPORE 388758", "blk_no": "10", "road_name": "LORONG 9 GEYLANG", "building": "PUBLIC FREE CLINIC (GEYLANG HQ)", "building_name": null, "address": "10 LORONG 9 GEYLANG PUBLIC FREE CLINIC (GEYLANG HQ) SINGAPORE 388758", "postal": "388758", "building_type": "Private Clinic", "gross_floor_area": "964" }, "geometry": { "type": "Point", "coordinates": [ 103.876580725904006, 1.31274672652693 ] } },
{ "type": "Feature", "properties": { "searchval": "10 LORONG 9 GEYLANG, SINGAPORE 388758", "blk_no": "10", "road_name": "LORONG 9 GEYLANG", "building": "PUBLIC FREE CLINIC GEYLANG HQ", "building_name": null, "address": "10 LORONG 9 GEYLANG PUBLIC FREE CLINIC GEYLANG HQ SINGAPORE 388758", "postal": "388758", "building_type": "Private Clinic", "gross_floor_area": "964" }, "geometry": { "type": "Point", "coordinates": [ 103.876580572782004, 1.31274662634335 ] } },
{ "type": "Feature", "properties": { "searchval": "100 BUKIT TIMAH ROAD, SINGAPORE 229899", "blk_no": "100", "road_name": "BUKIT TIMAH ROAD", "building": "CHILDREN'S EMERGENCY (KK WOMEN'S AND CHILDREN'S HOSPITAL)", "building_name": "KK WOMEN'S AND CHILDREN'S HOSPITAL", "address": "100 BUKIT TIMAH ROAD CHILDREN'S EMERGENCY (KK WOMEN'S AND CHILDREN'S HOSPITAL) SINGAPORE 229899", "postal": "229899", "building_type": "General Hospital/ Specialist Centre (Public)", "gross_floor_area": "124,541" }, "geometry": { "type": "Point", "coordinates": [ 103.846650072852, 1.31044853126535 ] } },
{ "type": "Feature", "properties": { "searchval": "100 BUKIT TIMAH ROAD, SINGAPORE 229899", "blk_no": "100", "road_name": "BUKIT TIMAH ROAD", "building": "KK WOMEN'S AND CHILDREN'S HOSPITAL", "building_name": "KK WOMEN'S AND CHILDREN'S HOSPITAL", "address": "100 BUKIT TIMAH ROAD KK WOMEN'S AND CHILDREN'S HOSPITAL SINGAPORE 229899", "postal": "229899", "building_type": "General Hospital/ Specialist Centre (Public)", "gross_floor_area": "124,541" }, "geometry": { "type": "Point", "coordinates": [ 103.846813321620004, 1.31049007429064 ] } },
{ "type": "Feature", "properties": { "searchval": "100 BUKIT TIMAH ROAD, SINGAPORE 229899", "blk_no": "100", "road_name": "BUKIT TIMAH ROAD", "building": "WOMEN'S 24-HOUR CLINIC (KK WOMEN'S AND CHILDREN'S HOSPITAL)", "building_name": "KK WOMEN'S AND CHILDREN'S HOSPITAL", "address": "100 BUKIT TIMAH ROAD WOMEN'S 24-HOUR CLINIC (KK WOMEN'S AND CHILDREN'S HOSPITAL) SINGAPORE 229899", "postal": "229899", "building_type": "General Hospital/ Specialist Centre (Public)", "gross_floor_area": "124,541" }, "geometry": { "type": "Point", "coordinates": [ 103.846650072852, 1.31044853126535 ] } },
{ "type": "Feature", "properties": { "searchval": "705 SERANGOON ROAD, SINGAPORE 328127", "blk_no": "705", "road_name": "SERANGOON ROAD", "building": "KWONG WAI SHIU HOSPITAL", "building_name": "KWONG WAI SHIU HOSPITAL", "address": "705 SERANGOON ROAD KWONG WAI SHIU HOSPITAL SINGAPORE 328127", "postal": "328127", "building_type": "TCM Clinic", "gross_floor_area": "28,842" }, "geometry": { "type": "Point", "coordinates": [ 103.859085390155997, 1.31799485288765 ] } },
{ "type": "Feature", "properties": { "searchval": "705 SERANGOON ROAD, SINGAPORE 328127", "blk_no": "705", "road_name": "SERANGOON ROAD", "building": "KWONG WAI SHIU NURSING HOME", "building_name": "KWONG WAI SHIU HOSPITAL", "address": "705 SERANGOON ROAD KWONG WAI SHIU NURSING HOME SINGAPORE 328127", "postal": "328127", "building_type": "TCM Clinic", "gross_floor_area": "28,842" }, "geometry": { "type": "Point", "coordinates": [ 103.859331956115, 1.31731958512868 ] } },
{ "type": "Feature", "properties": { "searchval": "34 JALAN EUNOS, SINGAPORE 419496", "blk_no": "34", "road_name": "JALAN EUNOS", "building": "KEMBANGAN ESTATE", "building_name": null, "address": "34 JALAN EUNOS KEMBANGAN ESTATE SINGAPORE 419496", "postal": "419496", "building_type": "Private Clinic", "gross_floor_area": "1,083" }, "geometry": { "type": "Point", "coordinates": [ 103.905448179830003, 1.32027515993962 ] } },
{ "type": "Feature", "properties": { "searchval": "34 JALAN EUNOS, SINGAPORE 419496", "blk_no": "34", "road_name": "JALAN EUNOS", "building": "KWAN-IN WELFFARE FREE CLINIC", "building_name": null, "address": "34 JALAN EUNOS KWAN-IN WELFFARE FREE CLINIC SINGAPORE 419496", "postal": "419496", "building_type": "Private Clinic", "gross_floor_area": "1,083" }, "geometry": { "type": "Point", "coordinates": [ 103.905482682004006, 1.32027158261422 ] } },
{ "type": "Feature", "properties": { "searchval": "2 SIMEI STREET 3, SINGAPORE 529889", "blk_no": "2", "road_name": "SIMEI STREET 3", "building": "SINGAPORE CHUNG HWA MEDICAL INSTITUTION", "building_name": "CHANGI GENERAL HOSPITAL", "address": "2 SIMEI STREET 3 SINGAPORE CHUNG HWA MEDICAL INSTITUTION SINGAPORE 529889", "postal": "529889", "building_type": "General Hospital/ Specialist Centre (Public)", "gross_floor_area": "112,778" }, "geometry": { "type": "Point", "coordinates": [ 103.949633084403004, 1.34053138453855 ] } },
{ "type": "Feature", "properties": { "searchval": "1 ORCHARD BOULEVARD, SINGAPORE 248649", "blk_no": "1", "road_name": "ORCHARD BOULEVARD", "building": "CAMDEN CENTRE", "building_name": "CAMDEN CENTRE", "address": "1 ORCHARD BOULEVARD CAMDEN CENTRE SINGAPORE 248649", "postal": "248649", "building_type": "Private Clinic", "gross_floor_area": "18,809" }, "geometry": { "type": "Point", "coordinates": [ 103.823907153628994, 1.30313758150045 ] } },
{ "type": "Feature", "properties": { "searchval": "1 ORCHARD BOULEVARD, SINGAPORE 248649", "blk_no": "1", "road_name": "ORCHARD BOULEVARD", "building": "CAMDEN MEDICAL CENTRE", "building_name": "CAMDEN CENTRE", "address": "1 ORCHARD BOULEVARD CAMDEN MEDICAL CENTRE SINGAPORE 248649", "postal": "248649", "building_type": "Private Clinic", "gross_floor_area": "18,809" }, "geometry": { "type": "Point", "coordinates": [ 103.824251960561995, 1.30336286364963 ] } },
{ "type": "Feature", "properties": { "searchval": "90 YISHUN CENTRAL, SINGAPORE 768828", "blk_no": "90", "road_name": "YISHUN CENTRAL", "building": "KHOO TECK PUAT HOSPITAL", "building_name": "KHOO TECK PUAT HOSPITAL", "address": "90 YISHUN CENTRAL KHOO TECK PUAT HOSPITAL SINGAPORE 768828", "postal": "768828", "building_type": "General Hospital/ Specialist Centre (Public)", "gross_floor_area": "103,534" }, "geometry": { "type": "Point", "coordinates": [ 103.838578888689995, 1.42408101871819 ] } },
{ "type": "Feature", "properties": { "searchval": "90 YISHUN CENTRAL, SINGAPORE 768828", "blk_no": "90", "road_name": "YISHUN CENTRAL", "building": "THE LITTLE SKOOL-HOUSE INTERNATIONAL PTE LTD", "building_name": "KHOO TECK PUAT HOSPITAL", "address": "90 YISHUN CENTRAL THE LITTLE SKOOL-HOUSE INTERNATIONAL PTE LTD SINGAPORE 768828", "postal": "768828", "building_type": "General Hospital/ Specialist Centre (Public)", "gross_floor_area": "103,534" }, "geometry": { "type": "Point", "coordinates": [ 103.837853665964005, 1.42387760839406 ] } },
{ "type": "Feature", "properties": { "searchval": "3 MOUNT ELIZABETH, SINGAPORE 228510", "blk_no": "3", "road_name": "MOUNT ELIZABETH", "building": "MOUNT ELIZABETH HOSPITAL", "building_name": "MOUNT ELIZABETH HOSPITAL", "address": "3 MOUNT ELIZABETH MOUNT ELIZABETH HOSPITAL SINGAPORE 228510", "postal": "228510", "building_type": "Private Hospital (Private)", "gross_floor_area": "55,097" }, "geometry": { "type": "Point", "coordinates": [ 103.835473484678005, 1.30540799662074 ] } },
{ "type": "Feature", "properties": { "searchval": "3 MOUNT ELIZABETH, SINGAPORE 228510", "blk_no": "3", "road_name": "MOUNT ELIZABETH", "building": "MOUNT ELIZABETH HOSPITAL/MEDICAL CENTRE", "building_name": "MOUNT ELIZABETH HOSPITAL", "address": "3 MOUNT ELIZABETH MOUNT ELIZABETH HOSPITAL/MEDICAL CENTRE SINGAPORE 228510", "postal": "228510", "building_type": "Private Hospital (Private)", "gross_floor_area": "55,097" }, "geometry": { "type": "Point", "coordinates": [ 103.835432938604995, 1.30515487138921 ] } },
{ "type": "Feature", "properties": { "searchval": "3 MOUNT ELIZABETH, SINGAPORE 228510", "blk_no": "3", "road_name": "MOUNT ELIZABETH", "building": "OUTPATIENT CLINIC (MOUNT ELIZABETH HOSPITAL)", "building_name": "MOUNT ELIZABETH HOSPITAL", "address": "3 MOUNT ELIZABETH OUTPATIENT CLINIC (MOUNT ELIZABETH HOSPITAL) SINGAPORE 228510", "postal": "228510", "building_type": "Private Hospital (Private)", "gross_floor_area": "55,097" }, "geometry": { "type": "Point", "coordinates": [ 103.835473484678005, 1.30540799662074 ] } },
{ "type": "Feature", "properties": { "searchval": "38 IRRAWADDY ROAD, SINGAPORE 329563", "blk_no": "38", "road_name": "IRRAWADDY ROAD", "building": "24-HOUR WALK-IN CLINIC (MOUNT ELIZABETH NOVENA HOSPITAL)", "building_name": null, "address": "38 IRRAWADDY ROAD 24-HOUR WALK-IN CLINIC (MOUNT ELIZABETH NOVENA HOSPITAL) SINGAPORE 329563", "postal": "329563", "building_type": "Private Hospital (Private)", "gross_floor_area": "73,797" }, "geometry": { "type": "Point", "coordinates": [ 103.844317495607001, 1.32210979381602 ] } },
{ "type": "Feature", "properties": { "searchval": "38 IRRAWADDY ROAD, SINGAPORE 329563", "blk_no": "38", "road_name": "IRRAWADDY ROAD", "building": "MOUNT ELIZABETH NOVENA HOSPITAL", "building_name": null, "address": "38 IRRAWADDY ROAD MOUNT ELIZABETH NOVENA HOSPITAL SINGAPORE 329563", "postal": "329563", "building_type": "Private Hospital (Private)", "gross_floor_area": "73,797" }, "geometry": { "type": "Point", "coordinates": [ 103.844212383832996, 1.32214005436305 ] } },
{ "type": "Feature", "properties": { "searchval": "1 TAMPINES STREET 41, SINGAPORE 529203", "blk_no": "1", "road_name": "TAMPINES STREET 41", "building": "SINGHEALTH POLYCLINICS (TAMPINES POLYCLINIC)", "building_name": "TAMPINES POLYCLINIC", "address": "1 TAMPINES STREET 41 SINGHEALTH POLYCLINICS (TAMPINES POLYCLINIC) SINGAPORE 529203", "postal": "529203", "building_type": "Polyclinic", "gross_floor_area": "5,923" }, "geometry": { "type": "Point", "coordinates": [ 103.945905475982997, 1.35730113647076 ] } },
{ "type": "Feature", "properties": { "searchval": "1 TAMPINES STREET 41, SINGAPORE 529203", "blk_no": "1", "road_name": "TAMPINES STREET 41", "building": "TAMPINES POLYCLINIC", "building_name": "TAMPINES POLYCLINIC", "address": "1 TAMPINES STREET 41 TAMPINES POLYCLINIC SINGAPORE 529203", "postal": "529203", "building_type": "Polyclinic", "gross_floor_area": "5,923" }, "geometry": { "type": "Point", "coordinates": [ 103.945849465406994, 1.35730996422406 ] } },
{ "type": "Feature", "properties": { "searchval": "1 JURONG EAST STREET 21, SINGAPORE 609606", "blk_no": "1", "road_name": "JURONG EAST STREET 21", "building": "JURONG COMMUNITY HOSPITAL", "building_name": null, "address": "1 JURONG EAST STREET 21 JURONG COMMUNITY HOSPITAL SINGAPORE 609606", "postal": "609606", "building_type": "General Hospital/ Specialist Centre (Public)", "gross_floor_area": "186,357" }, "geometry": { "type": "Point", "coordinates": [ 103.746634963936998, 1.33260943666141 ] } },
{ "type": "Feature", "properties": { "searchval": "1 JURONG EAST STREET 21, SINGAPORE 609606", "blk_no": "1", "road_name": "JURONG EAST STREET 21", "building": "NG TENG FONG GENERAL HOSPITAL", "building_name": null, "address": "1 JURONG EAST STREET 21 NG TENG FONG GENERAL HOSPITAL SINGAPORE 609606", "postal": "609606", "building_type": "General Hospital/ Specialist Centre (Public)", "gross_floor_area": "186,357" }, "geometry": { "type": "Point", "coordinates": [ 103.745448362928002, 1.33360619131534 ] } },
{ "type": "Feature", "properties": { "searchval": "1 JURONG EAST STREET 21, SINGAPORE 609606", "blk_no": "1", "road_name": "JURONG EAST STREET 21", "building": "NG TENG FONG GENERAL HOSPITAL (TOWER A)", "building_name": null, "address": "1 JURONG EAST STREET 21 NG TENG FONG GENERAL HOSPITAL (TOWER A) SINGAPORE 609606", "postal": "609606", "building_type": "General Hospital/ Specialist Centre (Public)", "gross_floor_area": "186,357" }, "geometry": { "type": "Point", "coordinates": [ 103.744221815870006, 1.33468279439727 ] } },
{ "type": "Feature", "properties": { "searchval": "1 JURONG EAST STREET 21, SINGAPORE 609606", "blk_no": "1", "road_name": "JURONG EAST STREET 21", "building": "NG TENG FONG GENERAL HOSPITAL (TOWER B)", "building_name": null, "address": "1 JURONG EAST STREET 21 NG TENG FONG GENERAL HOSPITAL (TOWER B) SINGAPORE 609606", "postal": "609606", "building_type": "General Hospital/ Specialist Centre (Public)", "gross_floor_area": "186,357" }, "geometry": { "type": "Point", "coordinates": [ 103.745566861423995, 1.33346311444808 ] } },
{ "type": "Feature", "properties": { "searchval": "1 JURONG EAST STREET 21, SINGAPORE 609606", "blk_no": "1", "road_name": "JURONG EAST STREET 21", "building": "NG TENG FONG GENERAL HOSPITAL (TOWER C)", "building_name": null, "address": "1 JURONG EAST STREET 21 NG TENG FONG GENERAL HOSPITAL (TOWER C) SINGAPORE 609606", "postal": "609606", "building_type": "General Hospital/ Specialist Centre (Public)", "gross_floor_area": "186,357" }, "geometry": { "type": "Point", "coordinates": [ 103.746622647549003, 1.33268762821723 ] } },
{ "type": "Feature", "properties": { "searchval": "11 JALAN TAN TOCK SENG, SINGAPORE 308433", "blk_no": "11", "road_name": "JALAN TAN TOCK SENG", "building": "JOHNS HOPKINS SINGAPORE INTERNATIONAL MEDICAL CENTRE", "building_name": "TAN TOCK SENG HOSPITAL", "address": "11 JALAN TAN TOCK SENG JOHNS HOPKINS SINGAPORE INTERNATIONAL MEDICAL CENTRE SINGAPORE 308433", "postal": "308433", "building_type": "General Hospital/ Specialist Centre (Public)", "gross_floor_area": "191,832" }, "geometry": { "type": "Point", "coordinates": [ 103.845757369412993, 1.32100978515427 ] } },
{ "type": "Feature", "properties": { "searchval": "17 ANG MO KIO AVENUE 9, SINGAPORE 569766", "blk_no": "17", "road_name": "ANG MO KIO AVENUE 9", "building": "ANG MO KIO SENIOR CITIZENS HEALTH CARE CENTRE", "building_name": "ANG MO KIO COMMUNITY HOSPITAL", "address": "17 ANG MO KIO AVENUE 9 ANG MO KIO SENIOR CITIZENS HEALTH CARE CENTRE SINGAPORE 569766", "postal": "569766", "building_type": "Community Hospital", "gross_floor_area": "28,151" }, "geometry": { "type": "Point", "coordinates": [ 103.840355932685995, 1.38401946148579 ] } },
{ "type": "Feature", "properties": { "searchval": "17 ANG MO KIO AVENUE 9, SINGAPORE 569766", "blk_no": "17", "road_name": "ANG MO KIO AVENUE 9", "building": "ANG MO KIO-THYE HUA KWAN HOSPITAL", "building_name": "ANG MO KIO COMMUNITY HOSPITAL", "address": "17 ANG MO KIO AVENUE 9 ANG MO KIO-THYE HUA KWAN HOSPITAL SINGAPORE 569766", "postal": "569766", "building_type": "Community Hospital", "gross_floor_area": "28,151" }, "geometry": { "type": "Point", "coordinates": [ 103.840356912670998, 1.38403248432085 ] } },
{ "type": "Feature", "properties": { "searchval": "17 ANG MO KIO AVENUE 9, SINGAPORE 569766", "blk_no": "17", "road_name": "ANG MO KIO AVENUE 9", "building": "GENERAL OUTPATIENT CLINIC (ANG MO KIO-THYE HUA KWAN HOSPITAL)", "building_name": "ANG MO KIO COMMUNITY HOSPITAL", "address": "17 ANG MO KIO AVENUE 9 GENERAL OUTPATIENT CLINIC (ANG MO KIO-THYE HUA KWAN HOSPITAL) SINGAPORE 569766", "postal": "569766", "building_type": "Community Hospital", "gross_floor_area": "28,151" }, "geometry": { "type": "Point", "coordinates": [ 103.840355932685995, 1.38401946148579 ] } },
{ "type": "Feature", "properties": { "searchval": "17 ANG MO KIO AVENUE 9, SINGAPORE 569766", "blk_no": "17", "road_name": "ANG MO KIO AVENUE 9", "building": "TAN TOCK SENG HOSPITAL REHABILITATION CENTRE", "building_name": "ANG MO KIO COMMUNITY HOSPITAL", "address": "17 ANG MO KIO AVENUE 9 TAN TOCK SENG HOSPITAL REHABILITATION CENTRE SINGAPORE 569766", "postal": "569766", "building_type": "Community Hospital", "gross_floor_area": "28,151" }, "geometry": { "type": "Point", "coordinates": [ 103.840397755872999, 1.38416725982776 ] } },
{ "type": "Feature", "properties": { "searchval": "5 LORONG NAPIRI, SINGAPORE 547530", "blk_no": "5", "road_name": "LORONG NAPIRI", "building": "SINGAPORE GENERAL HOSPITAL REHABILITATION MEDICINE", "building_name": "BRIGHT VISION HOSPITAL", "address": "5 LORONG NAPIRI SINGAPORE GENERAL HOSPITAL REHABILITATION MEDICINE SINGAPORE 547530", "postal": "547530", "building_type": "Community Hospital", "gross_floor_area": "10,847" }, "geometry": { "type": "Point", "coordinates": [ 103.878071534648001, 1.37205969849503 ] } },
{ "type": "Feature", "properties": { "searchval": "5 LORONG NAPIRI, SINGAPORE 547530", "blk_no": "5", "road_name": "LORONG NAPIRI", "building": "VANGUARD CARE HOME (HOUGANG)", "building_name": "BRIGHT VISION HOSPITAL", "address": "5 LORONG NAPIRI VANGUARD CARE HOME (HOUGANG) SINGAPORE 547530", "postal": "547530", "building_type": "Community Hospital", "gross_floor_area": "10,847" }, "geometry": { "type": "Point", "coordinates": [ 103.878031146932997, 1.37203701009478 ] } },
{ "type": "Feature", "properties": { "searchval": "820 THOMSON ROAD, SINGAPORE 574623", "blk_no": "820", "road_name": "THOMSON ROAD", "building": "24-HOUR WALK-IN CLINIC (MOUNT ALVERNIA HOSPITAL)", "building_name": "MOUNT ALVERNIA HOSPITAL", "address": "820 THOMSON ROAD 24-HOUR WALK-IN CLINIC (MOUNT ALVERNIA HOSPITAL) SINGAPORE 574623", "postal": "574623", "building_type": "Private Hospital (Private)", "gross_floor_area": "39,487" }, "geometry": { "type": "Point", "coordinates": [ 103.837774442376997, 1.34149897479709 ] } },
{ "type": "Feature", "properties": { "searchval": "820 THOMSON ROAD, SINGAPORE 574623", "blk_no": "820", "road_name": "THOMSON ROAD", "building": "MOUNT ALVERNIA HOSPITAL", "building_name": "MOUNT ALVERNIA HOSPITAL", "address": "820 THOMSON ROAD MOUNT ALVERNIA HOSPITAL SINGAPORE 574623", "postal": "574623", "building_type": "Private Hospital (Private)", "gross_floor_area": "39,487" }, "geometry": { "type": "Point", "coordinates": [ 103.837593772831994, 1.34181992530127 ] } },
{ "type": "Feature", "properties": { "searchval": "20 COLLEGE ROAD, SINGAPORE 169856", "blk_no": "20", "road_name": "COLLEGE ROAD", "building": "ACADEMIA", "building_name": "ACADEMIA", "address": "20 COLLEGE ROAD ACADEMIA SINGAPORE 169856", "postal": "169856", "building_type": "General Hospital/ Specialist Centre (Public)", "gross_floor_area": "75,311" }, "geometry": { "type": "Point", "coordinates": [ 103.835585506710004, 1.28167038083872 ] } },
{ "type": "Feature", "properties": { "searchval": "50 CHIN SWEE ROAD, SINGAPORE 169874", "blk_no": "50", "road_name": "CHIN SWEE ROAD", "building": "SINGAPORE THONG CHAI MEDICAL INSTITUTION", "building_name": "THONG CHAI BUILDING", "address": "50 CHIN SWEE ROAD SINGAPORE THONG CHAI MEDICAL INSTITUTION SINGAPORE 169874", "postal": "169874", "building_type": "Private Clinic", "gross_floor_area": "5,232" }, "geometry": { "type": "Point", "coordinates": [ 103.840270100813001, 1.28764537765146 ] } },
{ "type": "Feature", "properties": { "searchval": "2 YISHUN CENTRAL 2, SINGAPORE 768024", "blk_no": "2", "road_name": "YISHUN CENTRAL 2", "building": "NKF DIALYSIS CENTRE", "building_name": "YISHUN COMMUNITY HOSPITAL", "address": "2 YISHUN CENTRAL 2 NKF DIALYSIS CENTRE SINGAPORE 768024", "postal": "768024", "building_type": "General Hospital/ Specialist Centre (Public)", "gross_floor_area": "41,325" }, "geometry": { "type": "Point", "coordinates": [ 103.837376800572002, 1.42355699300713 ] } },
{ "type": "Feature", "properties": { "searchval": "2 YISHUN CENTRAL 2, SINGAPORE 768024", "blk_no": "2", "road_name": "YISHUN CENTRAL 2", "building": "YISHUN COMMUNITY HOSPITAL", "building_name": "YISHUN COMMUNITY HOSPITAL", "address": "2 YISHUN CENTRAL 2 YISHUN COMMUNITY HOSPITAL SINGAPORE 768024", "postal": "768024", "building_type": "General Hospital/ Specialist Centre (Public)", "gross_floor_area": "41,325" }, "geometry": { "type": "Point", "coordinates": [ 103.837242211173006, 1.4237674572872 ] } },
{ "type": "Feature", "properties": { "searchval": "2 BUKIT BATOK STREET 11, SINGAPORE 659674", "blk_no": "2", "road_name": "BUKIT BATOK STREET 11", "building": "SAINT LUKE'S ELDERCARE", "building_name": null, "address": "2 BUKIT BATOK STREET 11 SAINT LUKE'S ELDERCARE SINGAPORE 659674", "postal": "659674", "building_type": "Polyclinic", "gross_floor_area": "12,527" }, "geometry": { "type": "Point", "coordinates": [ 103.741889031010999, 1.34950448942588 ] } },
{ "type": "Feature", "properties": { "searchval": "2 BUKIT BATOK STREET 11, SINGAPORE 659674", "blk_no": "2", "road_name": "BUKIT BATOK STREET 11", "building": "SAINT LUKE'S HOSPITAL-DAY REHABILITATION", "building_name": null, "address": "2 BUKIT BATOK STREET 11 SAINT LUKE'S HOSPITAL-DAY REHABILITATION SINGAPORE 659674", "postal": "659674", "building_type": "Polyclinic", "gross_floor_area": "12,527" }, "geometry": { "type": "Point", "coordinates": [ 103.741877617968001, 1.3495360738959 ] } },
{ "type": "Feature", "properties": { "searchval": "2 BUKIT BATOK STREET 11, SINGAPORE 659674", "blk_no": "2", "road_name": "BUKIT BATOK STREET 11", "building": "ST LUKE'S HOSPITAL", "building_name": null, "address": "2 BUKIT BATOK STREET 11 ST LUKE'S HOSPITAL SINGAPORE 659674", "postal": "659674", "building_type": "Polyclinic", "gross_floor_area": "12,527" }, "geometry": { "type": "Point", "coordinates": [ 103.742182351384997, 1.34960041173064 ] } },
{ "type": "Feature", "properties": { "searchval": "363 BALESTIER ROAD, SINGAPORE 329784", "blk_no": "363", "road_name": "BALESTIER ROAD", "building": "ORANGE VALLEY CARE CENTRE (BALESTIER)", "building_name": "PARKWAY HEALTH DAY SURGERY", "address": "363 BALESTIER ROAD ORANGE VALLEY CARE CENTRE (BALESTIER) SINGAPORE 329784", "postal": "329784", "building_type": "Private Clinic", "gross_floor_area": "4,724" }, "geometry": { "type": "Point", "coordinates": [ 103.850659815729003, 1.32456136399941 ] } },
{ "type": "Feature", "properties": { "searchval": "71 IRRAWADDY ROAD, SINGAPORE 329562", "blk_no": "71", "road_name": "IRRAWADDY ROAD", "building": "REN CI COMMUNITY HOSPITAL", "building_name": null, "address": "71 IRRAWADDY ROAD REN CI COMMUNITY HOSPITAL SINGAPORE 329562", "postal": "329562", "building_type": "Community Hospital", "gross_floor_area": "20,498" }, "geometry": { "type": "Point", "coordinates": [ 103.845973302635997, 1.3228845004622 ] } },
{ "type": "Feature", "properties": { "searchval": "71 IRRAWADDY ROAD, SINGAPORE 329562", "blk_no": "71", "road_name": "IRRAWADDY ROAD", "building": "TAN TOCK SENG HOSPITAL SUBACUTE WARDS (WARDS 6-10)", "building_name": null, "address": "71 IRRAWADDY ROAD TAN TOCK SENG HOSPITAL SUBACUTE WARDS (WARDS 6-10) SINGAPORE 329562", "postal": "329562", "building_type": "Community Hospital", "gross_floor_area": "20,498" }, "geometry": { "type": "Point", "coordinates": [ 103.846003502057002, 1.32293444862944 ] } },
{ "type": "Feature", "properties": { "searchval": "585 NORTH BRIDGE ROAD, SINGAPORE 188770", "blk_no": "585", "road_name": "NORTH BRIDGE ROAD", "building": "24 HOUR WALK-IN CLINIC ACCIDENT & EMERGENCY (RAFFLES HOSPITAL)", "building_name": "RAFFLES HOSPITAL", "address": "585 NORTH BRIDGE ROAD 24 HOUR WALK-IN CLINIC ACCIDENT & EMERGENCY (RAFFLES HOSPITAL) SINGAPORE 188770", "postal": "188770", "building_type": "Private Hospital (Private)", "gross_floor_area": "26,563" }, "geometry": { "type": "Point", "coordinates": [ 103.857243718624005, 1.30114329771677 ] } },
{ "type": "Feature", "properties": { "searchval": "585 NORTH BRIDGE ROAD, SINGAPORE 188770", "blk_no": "585", "road_name": "NORTH BRIDGE ROAD", "building": "RAFFLES HOSPITAL", "building_name": "RAFFLES HOSPITAL", "address": "585 NORTH BRIDGE ROAD RAFFLES HOSPITAL SINGAPORE 188770", "postal": "188770", "building_type": "Private Hospital (Private)", "gross_floor_area": "26,563" }, "geometry": { "type": "Point", "coordinates": [ 103.857465501728996, 1.30118153061216 ] } },
{ "type": "Feature", "properties": { "searchval": "585 NORTH BRIDGE ROAD, SINGAPORE 188770", "blk_no": "585", "road_name": "NORTH BRIDGE ROAD", "building": "RAFFLES SPECIALIST CENTRE", "building_name": "RAFFLES HOSPITAL", "address": "585 NORTH BRIDGE ROAD RAFFLES SPECIALIST CENTRE SINGAPORE 188770", "postal": "188770", "building_type": "Private Hospital (Private)", "gross_floor_area": "26,563" }, "geometry": { "type": "Point", "coordinates": [ 103.856827694087002, 1.30120424117778 ] } },
{ "type": "Feature", "properties": { "searchval": "351 CHAI CHEE STREET, SINGAPORE 468982", "blk_no": "351", "road_name": "CHAI CHEE STREET", "building": "ECON MEDICARE CENTRE (CHAI CHEE)", "building_name": "SATA COMMHEALTH BUILDING", "address": "351 CHAI CHEE STREET ECON MEDICARE CENTRE (CHAI CHEE) SINGAPORE 468982", "postal": "468982", "building_type": "Private Clinic", "gross_floor_area": "5,434" }, "geometry": { "type": "Point", "coordinates": [ 103.921311765650998, 1.32772603588991 ] } },
{ "type": "Feature", "properties": { "searchval": "351 CHAI CHEE STREET, SINGAPORE 468982", "blk_no": "351", "road_name": "CHAI CHEE STREET", "building": "SATA COMMHEALTH BUILDING", "building_name": "SATA COMMHEALTH BUILDING", "address": "351 CHAI CHEE STREET SATA COMMHEALTH BUILDING SINGAPORE 468982", "postal": "468982", "building_type": "Private Clinic", "gross_floor_area": "5,434" }, "geometry": { "type": "Point", "coordinates": [ 103.921391376613997, 1.32774293712106 ] } },
{ "type": "Feature", "properties": { "searchval": "351 CHAI CHEE STREET, SINGAPORE 468982", "blk_no": "351", "road_name": "CHAI CHEE STREET", "building": "SATA COMMHEALTH UTTAMRAM MEDICAL CENTRE", "building_name": "SATA COMMHEALTH BUILDING", "address": "351 CHAI CHEE STREET SATA COMMHEALTH UTTAMRAM MEDICAL CENTRE SINGAPORE 468982", "postal": "468982", "building_type": "Private Clinic", "gross_floor_area": "5,434" }, "geometry": { "type": "Point", "coordinates": [ 103.921518841475006, 1.3276844394501 ] } },
{ "type": "Feature", "properties": { "searchval": "640 LORONG 4 TOA PAYOH, SINGAPORE 319522", "blk_no": "640", "road_name": "LORONG 4 TOA PAYOH", "building": "SINGAPORE CHUNG HWA MEDICAL INSTITUTION", "building_name": "CHUNG HWA FREE CLINIC", "address": "640 LORONG 4 TOA PAYOH SINGAPORE CHUNG HWA MEDICAL INSTITUTION SINGAPORE 319522", "postal": "319522", "building_type": "Private Clinic", "gross_floor_area": "3,489" }, "geometry": { "type": "Point", "coordinates": [ 103.851277086861998, 1.33233882778404 ] } },
{ "type": "Feature", "properties": { "searchval": "640 LORONG 4 TOA PAYOH, SINGAPORE 319522", "blk_no": "640", "road_name": "LORONG 4 TOA PAYOH", "building": "SINGAPORE COLLEGE OF TRADITIONAL CHINESE MEDICINE", "building_name": "CHUNG HWA FREE CLINIC", "address": "640 LORONG 4 TOA PAYOH SINGAPORE COLLEGE OF TRADITIONAL CHINESE MEDICINE SINGAPORE 319522", "postal": "319522", "building_type": "Private Clinic", "gross_floor_area": "3,489" }, "geometry": { "type": "Point", "coordinates": [ 103.851195471512, 1.33222279491778 ] } },
{ "type": "Feature", "properties": { "searchval": "10 WOODLANDS STREET 31, SINGAPORE 738579", "blk_no": "10", "road_name": "WOODLANDS STREET 31", "building": "NATIONAL HEALTHCARE GROUP POLYCLINICS (WOODLANDS POLYCLINIC)", "building_name": "WOODLANDS POLYCLINIC", "address": "10 WOODLANDS STREET 31 NATIONAL HEALTHCARE GROUP POLYCLINICS (WOODLANDS POLYCLINIC) SINGAPORE 738579", "postal": "738579", "building_type": "Polyclinic", "gross_floor_area": "6,303" }, "geometry": { "type": "Point", "coordinates": [ 103.775212914803006, 1.43089322828279 ] } },
{ "type": "Feature", "properties": { "searchval": "10 WOODLANDS STREET 31, SINGAPORE 738579", "blk_no": "10", "road_name": "WOODLANDS STREET 31", "building": "WOODLANDS POLYCLINIC", "building_name": "WOODLANDS POLYCLINIC", "address": "10 WOODLANDS STREET 31 WOODLANDS POLYCLINIC SINGAPORE 738579", "postal": "738579", "building_type": "Polyclinic", "gross_floor_area": "6,303" }, "geometry": { "type": "Point", "coordinates": [ 103.775226749808994, 1.43090832690174 ] } },
{ "type": "Feature", "properties": { "searchval": "89 HOUGANG AVENUE 4, SINGAPORE 538829", "blk_no": "89", "road_name": "HOUGANG AVENUE 4", "building": "HOUGANG POLYCLINIC", "building_name": "HOUGANG POLYCLINIC", "address": "89 HOUGANG AVENUE 4 HOUGANG POLYCLINIC SINGAPORE 538829", "postal": "538829", "building_type": "Polyclinic", "gross_floor_area": "5,561" }, "geometry": { "type": "Point", "coordinates": [ 103.889001464459994, 1.3699068381066 ] } },
{ "type": "Feature", "properties": { "searchval": "89 HOUGANG AVENUE 4, SINGAPORE 538829", "blk_no": "89", "road_name": "HOUGANG AVENUE 4", "building": "NATIONAL HEALTHCARE GROUP POLYCLINICS (HOUGANG POLYCLINIC)", "building_name": "HOUGANG POLYCLINIC", "address": "89 HOUGANG AVENUE 4 NATIONAL HEALTHCARE GROUP POLYCLINICS (HOUGANG POLYCLINIC) SINGAPORE 538829", "postal": "538829", "building_type": "Polyclinic", "gross_floor_area": "5,561" }, "geometry": { "type": "Point", "coordinates": [ 103.888996385371001, 1.37001805253858 ] } },
{ "type": "Feature", "properties": { "searchval": "2003 LORONG 8 TOA PAYOH, SINGAPORE 319260", "blk_no": "2003", "road_name": "LORONG 8 TOA PAYOH", "building": "NATIONAL HEALTHCARE GROUP POLYCLINICS (TOA PAYOH POLYCLINIC)", "building_name": "TOA PAYOH POLYCLINIC", "address": "2003 LORONG 8 TOA PAYOH NATIONAL HEALTHCARE GROUP POLYCLINICS (TOA PAYOH POLYCLINIC) SINGAPORE 319260", "postal": "319260", "building_type": "Polyclinic", "gross_floor_area": "4,103" }, "geometry": { "type": "Point", "coordinates": [ 103.858989057136, 1.33449729734044 ] } },
{ "type": "Feature", "properties": { "searchval": "2003 LORONG 8 TOA PAYOH, SINGAPORE 319260", "blk_no": "2003", "road_name": "LORONG 8 TOA PAYOH", "building": "TOA PAYOH POLYCLINIC", "building_name": "TOA PAYOH POLYCLINIC", "address": "2003 LORONG 8 TOA PAYOH TOA PAYOH POLYCLINIC SINGAPORE 319260", "postal": "319260", "building_type": "Polyclinic", "gross_floor_area": "4,103" }, "geometry": { "type": "Point", "coordinates": [ 103.858956441968999, 1.33448028627853 ] } },
{ "type": "Feature", "properties": { "searchval": "6 NAPIER ROAD, SINGAPORE 258499", "blk_no": "6", "road_name": "NAPIER ROAD", "building": "GLENEAGLES MEDICAL CENTRE", "building_name": "GLENEAGLES MEDICAL CENTRE", "address": "6 NAPIER ROAD GLENEAGLES MEDICAL CENTRE SINGAPORE 258499", "postal": "258499", "building_type": "Private Clinic", "gross_floor_area": "15,732" }, "geometry": { "type": "Point", "coordinates": [ 103.820124457042994, 1.30706156461195 ] } },
{ "type": "Feature", "properties": { "searchval": "580 STIRLING ROAD, SINGAPORE 148958", "blk_no": "580", "road_name": "STIRLING ROAD", "building": "NATIONAL UNIVERSITY POLYCLINICS (QUEENSTOWN POLYCLINIC)", "building_name": "QUEENSTOWN POLYCLINIC", "address": "580 STIRLING ROAD NATIONAL UNIVERSITY POLYCLINICS (QUEENSTOWN POLYCLINIC) SINGAPORE 148958", "postal": "148958", "building_type": "Polyclinic", "gross_floor_area": "3,768" }, "geometry": { "type": "Point", "coordinates": [ 103.800957796296998, 1.29847547391978 ] } },
{ "type": "Feature", "properties": { "searchval": "580 STIRLING ROAD, SINGAPORE 148958", "blk_no": "580", "road_name": "STIRLING ROAD", "building": "QUEENSTOWN POLYCLINIC", "building_name": "QUEENSTOWN POLYCLINIC", "address": "580 STIRLING ROAD QUEENSTOWN POLYCLINIC SINGAPORE 148958", "postal": "148958", "building_type": "Polyclinic", "gross_floor_area": "3,768" }, "geometry": { "type": "Point", "coordinates": [ 103.801017702348005, 1.2984730688522 ] } },
{ "type": "Feature", "properties": { "searchval": "50 BUKIT BATOK WEST AVENUE 3, SINGAPORE 659164", "blk_no": "50", "road_name": "BUKIT BATOK WEST AVENUE 3", "building": "BUKIT BATOK POLYCLINIC", "building_name": "BUKIT BATOK POLYCLINIC", "address": "50 BUKIT BATOK WEST AVENUE 3 BUKIT BATOK POLYCLINIC SINGAPORE 659164", "postal": "659164", "building_type": "Polyclinic", "gross_floor_area": "6,371" }, "geometry": { "type": "Point", "coordinates": [ 103.747822265460997, 1.35201517590477 ] } },
{ "type": "Feature", "properties": { "searchval": "50 BUKIT BATOK WEST AVENUE 3, SINGAPORE 659164", "blk_no": "50", "road_name": "BUKIT BATOK WEST AVENUE 3", "building": "NATIONAL HEALTHCARE GROUP POLYCLINIC'S GALLERY", "building_name": "BUKIT BATOK POLYCLINIC", "address": "50 BUKIT BATOK WEST AVENUE 3 NATIONAL HEALTHCARE GROUP POLYCLINIC'S GALLERY SINGAPORE 659164", "postal": "659164", "building_type": "Polyclinic", "gross_floor_area": "6,371" }, "geometry": { "type": "Point", "coordinates": [ 103.747906988796004, 1.35199663489307 ] } },
{ "type": "Feature", "properties": { "searchval": "50 BUKIT BATOK WEST AVENUE 3, SINGAPORE 659164", "blk_no": "50", "road_name": "BUKIT BATOK WEST AVENUE 3", "building": "NATIONAL UNIVERSITY POLYCLINICS (BUKIT BATOK POLYCLINIC)", "building_name": "BUKIT BATOK POLYCLINIC", "address": "50 BUKIT BATOK WEST AVENUE 3 NATIONAL UNIVERSITY POLYCLINICS (BUKIT BATOK POLYCLINIC) SINGAPORE 659164", "postal": "659164", "building_type": "Polyclinic", "gross_floor_area": "6,371" }, "geometry": { "type": "Point", "coordinates": [ 103.747906154201004, 1.35204039566826 ] } },
{ "type": "Feature", "properties": { "searchval": "2 TECK WHYE CRESCENT, SINGAPORE 688846", "blk_no": "2", "road_name": "TECK WHYE CRESCENT", "building": "CHOA CHU KANG POLYCLINIC", "building_name": "CHOA CHU KANG POLYCLINIC", "address": "2 TECK WHYE CRESCENT CHOA CHU KANG POLYCLINIC SINGAPORE 688846", "postal": "688846", "building_type": "Polyclinic", "gross_floor_area": "6,415" }, "geometry": { "type": "Point", "coordinates": [ 103.750776869898999, 1.38234139419018 ] } },
{ "type": "Feature", "properties": { "searchval": "2 TECK WHYE CRESCENT, SINGAPORE 688846", "blk_no": "2", "road_name": "TECK WHYE CRESCENT", "building": "NATIONAL UNIVERSITY POLYCLINICS (CHOA CHU KANG POLYCLINIC)", "building_name": "CHOA CHU KANG POLYCLINIC", "address": "2 TECK WHYE CRESCENT NATIONAL UNIVERSITY POLYCLINICS (CHOA CHU KANG POLYCLINIC) SINGAPORE 688846", "postal": "688846", "building_type": "Polyclinic", "gross_floor_area": "6,415" }, "geometry": { "type": "Point", "coordinates": [ 103.750814688256, 1.38232431432989 ] } },
{ "type": "Feature", "properties": { "searchval": "190 JURONG EAST AVENUE 1, SINGAPORE 609788", "blk_no": "190", "road_name": "JURONG EAST AVENUE 1", "building": "JURONG POLYCLINIC", "building_name": "JURONG POLYCLINIC", "address": "190 JURONG EAST AVENUE 1 JURONG POLYCLINIC SINGAPORE 609788", "postal": "609788", "building_type": "Polyclinic", "gross_floor_area": "3,802" }, "geometry": { "type": "Point", "coordinates": [ 103.730717863166007, 1.34971979663763 ] } },
{ "type": "Feature", "properties": { "searchval": "190 JURONG EAST AVENUE 1, SINGAPORE 609788", "blk_no": "190", "road_name": "JURONG EAST AVENUE 1", "building": "NATIONAL UNIVERSITY POLYCLINICS (JURONG POLYCLINIC)", "building_name": "JURONG POLYCLINIC", "address": "190 JURONG EAST AVENUE 1 NATIONAL UNIVERSITY POLYCLINICS (JURONG POLYCLINIC) SINGAPORE 609788", "postal": "609788", "building_type": "Polyclinic", "gross_floor_area": "3,802" }, "geometry": { "type": "Point", "coordinates": [ 103.730767092044005, 1.34969254866294 ] } },
{ "type": "Feature", "properties": { "searchval": "26 JURONG WEST STREET 61, SINGAPORE 648201", "blk_no": "26", "road_name": "JURONG WEST STREET 61", "building": "NATIONAL UNIVERSITY POLYCLINICS (PIONEER POLYCLINIC)", "building_name": "PIONEER POLYCLINIC", "address": "26 JURONG WEST STREET 61 NATIONAL UNIVERSITY POLYCLINICS (PIONEER POLYCLINIC) SINGAPORE 648201", "postal": "648201", "building_type": "Polyclinic", "gross_floor_area": "7,750" }, "geometry": { "type": "Point", "coordinates": [ 103.699014641413996, 1.33856179501564 ] } },
{ "type": "Feature", "properties": { "searchval": "26 JURONG WEST STREET 61, SINGAPORE 648201", "blk_no": "26", "road_name": "JURONG WEST STREET 61", "building": "PIONEER POLYCLINIC", "building_name": "PIONEER POLYCLINIC", "address": "26 JURONG WEST STREET 61 PIONEER POLYCLINIC SINGAPORE 648201", "postal": "648201", "building_type": "Polyclinic", "gross_floor_area": "7,750" }, "geometry": { "type": "Point", "coordinates": [ 103.698979334423996, 1.33856225129697 ] } },
{ "type": "Feature", "properties": { "searchval": "339 THOMSON ROAD, SINGAPORE 307677", "blk_no": "339", "road_name": "THOMSON ROAD", "building": "24-HR FAMILY WALK-IN-CLINIC (THOMSON MEDICAL CENTRE)", "building_name": "THOMSON MEDICAL CENTRE", "address": "339 THOMSON ROAD 24-HR FAMILY WALK-IN-CLINIC (THOMSON MEDICAL CENTRE) SINGAPORE 307677", "postal": "307677", "building_type": "Private Hospital (Private)", "gross_floor_area": "12,515" }, "geometry": { "type": "Point", "coordinates": [ 103.841475039068996, 1.32536165247809 ] } },
{ "type": "Feature", "properties": { "searchval": "339 THOMSON ROAD, SINGAPORE 307677", "blk_no": "339", "road_name": "THOMSON ROAD", "building": "THOMSON MEDICAL CENTRE", "building_name": "THOMSON MEDICAL CENTRE", "address": "339 THOMSON ROAD THOMSON MEDICAL CENTRE SINGAPORE 307677", "postal": "307677", "building_type": "Private Hospital (Private)", "gross_floor_area": "12,515" }, "geometry": { "type": "Point", "coordinates": [ 103.841457941407995, 1.32536064328127 ] } },
{ "type": "Feature", "properties": { "searchval": "101 PENANG ROAD, SINGAPORE 238466", "blk_no": "101", "road_name": "PENANG ROAD", "building": "FORMER HOUSE OF TAN YEOK NEE", "building_name": "HOUSE OF TAN YEOK NEE", "address": "101 PENANG ROAD FORMER HOUSE OF TAN YEOK NEE SINGAPORE 238466", "postal": "238466", "building_type": "Private Clinic", "gross_floor_area": "2,084" }, "geometry": { "type": "Point", "coordinates": [ 103.843313529276998, 1.29862750131162 ] } },
{ "type": "Feature", "properties": { "searchval": "101 PENANG ROAD, SINGAPORE 238466", "blk_no": "101", "road_name": "PENANG ROAD", "building": "HOUSE OF TAN YEOK NEE", "building_name": "HOUSE OF TAN YEOK NEE", "address": "101 PENANG ROAD HOUSE OF TAN YEOK NEE SINGAPORE 238466", "postal": "238466", "building_type": "Private Clinic", "gross_floor_area": "2,084" }, "geometry": { "type": "Point", "coordinates": [ 103.843385901502998, 1.29858838895846 ] } }
]
}
